{
  "type": "FeatureCollection",
  "features": [
    {
      "type": "Feature",
      "properties": {
        "elevation_m": 218.0,
        "source": "derived from Copernicus GLO-30"
      },
      "geometry": {
        "type": "LineString",
        "coordinates": [
          [
            77.49995524074029,
            28.751899685184725
          ],
          [
            77.49972222222223,
            28.751929973380307
          ],
          [
            77.49944444444445,
            28.751918779748898
          ],
          [
            77.4993578167425,
            28.751944444444447
          ],
          [
            77.49928260968261,
            28.75222222222222
          ],
          [
            77.49944444444445,
            28.75242858082617
          ],
          [
            77.49950493969561,
            28.752499999999998
          ],
          [
            77.49947440999267,
            28.752777777777776
          ],
          [
            77.49972222222223,
            28.75299139328753
          ],
          [
            77.49999453109317,
            28.753055555555555
          ],
          [
            77.50000000000001,
            28.75305605256751
          ],
          [
            77.50027777777778,
            28.753275989487822
          ],
          [
            77.50035363970497,
            28.75333333333333
          ],
          [
            77.50035418373012,
            28.753409739285676
          ]
        ]
      }
    },
    {
      "type": "Feature",
      "properties": {
        "elevation_m": 218.0,
        "source": "derived from Copernicus GLO-30"
      },
      "geometry": {
        "type": "LineString",
        "coordinates": [
          [
            77.49694793536804,
            28.75333333333333
          ],
          [
            77.49694444444445,
            28.753330515297904
          ]
        ]
      }
    },
    {
      "type": "Feature",
      "properties": {
        "elevation_m": 218.0,
        "source": "derived from Copernicus GLO-30"
      },
      "geometry": {
        "type": "LineString",
        "coordinates": [
          [
            77.49947967184531,
            28.753575883710248
          ],
          [
            77.49944444444445,
            28.753562151008026
          ],
          [
            77.49916666666668,
            28.753354093584157
          ],
          [
            77.49914344695812,
            28.75333333333333
          ],
          [
            77.4988888888889,
            28.753205252040758
          ],
          [
            77.49874997819168,
            28.753055555555555
          ],
          [
            77.49879908179915,
            28.752777777777776
          ],
          [
            77.49861111111112,
            28.75267756377774
          ],
          [
            77.49833333333335,
            28.752665797609517
          ],
          [
            77.49809518644713,
            28.752777777777776
          ],
          [
            77.49805555555557,
            28.752809488747673
          ],
          [
            77.49785741670524,
            28.753055555555555
          ],
          [
            77.4977777777778,
            28.753149960884294
          ],
          [
            77.49752914613416,
            28.753333333333327
          ],
          [
            77.49752422145329,
            28.753357554786618
          ]
        ]
      }
    },
    {
      "type": "Feature",
      "properties": {
        "elevation_m": 218.0,
        "source": "derived from Copernicus GLO-30"
      },
      "geometry": {
        "type": "LineString",
        "coordinates": [
          [
            77.4961111111111,
            28.75396822190551
          ],
          [
            77.49631166241377,
            28.753966115364015
          ]
        ]
      }
    },
    {
      "type": "Feature",
      "properties": {
        "elevation_m": 221.33,
        "source": "derived from Copernicus GLO-30"
      },
      "geometry": {
        "type": "LineString",
        "coordinates": [
          [
            77.4985087073692,
            28.751769070408596
          ],
          [
            77.49861111111112,
            28.751749238249833
          ],
          [
            77.49884086382008,
            28.751666666666665
          ],
          [
            77.4988888888889,
            28.751653234871576
          ],
          [
            77.49904614104273,
            28.75138888888889
          ],
          [
            77.49916666666668,
            28.75119715200882
          ],
          [
            77.49919354379495,
            28.75113798823937
          ]
        ]
      }
    },
    {
      "type": "Feature",
      "properties": {
        "elevation_m": 221.33,
        "source": "derived from Copernicus GLO-30"
      },
      "geometry": {
        "type": "LineString",
        "coordinates": [
          [
            77.49987132016042,
            28.75181576460485
          ],
          [
            77.49972222222223,
            28.7518351446419
          ],
          [
            77.49944444444445,
            28.751803065641564
          ],
          [
            77.49916666666668,
            28.75186465132193
          ],
          [
            77.49910225445352,
            28.751944444444444
          ],
          [
            77.4991126348191,
            28.75222222222222
          ],
          [
            77.4991666666667,
            28.752376656030446
          ],
          [
            77.49926930477987,
            28.752499999999998
          ],
          [
            77.49916666666668,
            28.75269987384041
          ],
          [
            77.4988888888889,
            28.752544085039972
          ],
          [
            77.49861111111112,
            28.752511431730053
          ],
          [
            77.49855892905356,
            28.752499999999998
          ],
          [
            77.49833333333333,
            28.752458182936365
          ],
          [
            77.49824455354337,
            28.752499999999998
          ],
          [
            77.49805555555557,
            28.752613177986433
          ],
          [
            77.49777777777778,
            28.752670502168865
          ],
          [
            77.4975616898726,
            28.752777777777776
          ],
          [
            77.49758944964435,
            28.75305555555555
          ],
          [
            77.4975,
            28.753131937934775
          ],
          [
            77.49734868670086,
            28.753055555555555
          ],
          [
            77.49741767974416,
            28.75277777777778
          ],
          [
            77.49734294732018,
            28.75265705267983
          ]
        ]
      }
    },
    {
      "type": "Feature",
      "properties": {
        "elevation_m": 221.33,
        "source": "derived from Copernicus GLO-30"
      },
      "geometry": {
        "type": "LineString",
        "coordinates": [
          [
            77.49695943350967,
            28.75304056649033
          ],
          [
            77.49696311420699,
            28.75305555555556
          ],
          [
            77.49694444444445,
            28.753061358337533
          ]
        ]
      }
    },
    {
      "type": "Feature",
      "properties": {
        "elevation_m": 221.33,
        "source": "derived from Copernicus GLO-30"
      },
      "geometry": {
        "type": "LineString",
        "coordinates": [
          [
            77.49958803275622,
            28.753467522799344
          ],
          [
            77.49944444444445,
            28.75341154774924
          ],
          [
            77.49934563806428,
            28.75333333333333
          ],
          [
            77.49944444444445,
            28.75318678597081
          ],
          [
            77.49972222222223,
            28.75316319289219
          ],
          [
            77.50000000000001,
            28.753170322850153
          ],
          [
            77.50017661044006,
            28.75333333333333
          ]
        ]
      }
    },
    {
      "type": "Feature",
      "properties": {
        "elevation_m": 224.66,
        "source": "derived from Copernicus GLO-30"
      },
      "geometry": {
        "type": "LineString",
        "coordinates": [
          [
            77.49978739958054,
            28.751731844024974
          ],
          [
            77.49972222222223,
            28.751740315903486
          ],
          [
            77.49944444444445,
            28.75168735153423
          ],
          [
            77.49916666666668,
            28.751708376854637
          ],
          [
            77.49910586773353,
            28.751666666666665
          ],
          [
            77.49916666666668,
            28.751532051744853
          ],
          [
            77.49920119065,
            28.751388888888886
          ],
          [
            77.49927717734478,
            28.75122162178921
          ]
        ]
      }
    },
    {
      "type": "Feature",
      "properties": {
        "elevation_m": 224.66,
        "source": "derived from Copernicus GLO-30"
      },
      "geometry": {
        "type": "LineString",
        "coordinates": [
          [
            77.49793181618787,
            28.752068183812124
          ],
          [
            77.49805555555557,
            28.75203296975172
          ],
          [
            77.49833333333335,
            28.75207605267412
          ],
          [
            77.49861111111112,
            28.752025348063924
          ],
          [
            77.49872253200378,
            28.751944444444447
          ],
          [
            77.4988888888889,
            28.75182762174645
          ],
          [
            77.4989761034272,
            28.751944444444444
          ],
          [
            77.49902067439753,
            28.752222222222215
          ],
          [
            77.4988888888889,
            28.75239538912018
          ],
          [
            77.49861111111112,
            28.752374312113634
          ],
          [
            77.49833333333335,
            28.752317615302616
          ],
          [
            77.49805555555557,
            28.752419710292028
          ],
          [
            77.49777777777778,
            28.752450553900037
          ],
          [
            77.49763661436684,
            28.752363385633156
          ]
        ]
      }
    },
    {
      "type": "Feature",
      "properties": {
        "elevation_m": 224.66,
        "source": "derived from Copernicus GLO-30"
      },
      "geometry": {
        "type": "LineString",
        "coordinates": [
          [
            77.49969639366712,
            28.75335916188844
          ],
          [
            77.49963013774388,
            28.75333333333333
          ],
          [
            77.49972222222223,
            28.753300584997035
          ],
          [
            77.50000000000001,
            28.753284593132804
          ],
          [
            77.50005280659316,
            28.75333333333333
          ]
        ]
      }
    },
    {
      "type": "Feature",
      "properties": {
        "elevation_m": 227.98,
        "source": "derived from Copernicus GLO-30"
      },
      "geometry": {
        "type": "LineString",
        "coordinates": [
          [
            77.49967150862737,
            28.7516159530718
          ],
          [
            77.49944444444445,
            28.75154140999114
          ],
          [
            77.49932281754722,
            28.751388888888886
          ],
          [
            77.49936081089461,
            28.751305255339048
          ]
        ]
      }
    },
    {
      "type": "Feature",
      "properties": {
        "elevation_m": 227.98,
        "source": "derived from Copernicus GLO-30"
      },
      "geometry": {
        "type": "LineString",
        "coordinates": [
          [
            77.49861111111112,
            28.752200068618773
          ],
          [
            77.4988888888889,
            28.75206003569818
          ],
          [
            77.49892871397597,
            28.752222222222215
          ],
          [
            77.4988888888889,
            28.752274552610135
          ],
          [
            77.49861111111112,
            28.75223933639897
          ],
          [
            77.49853252276662,
            28.752222222222215
          ],
          [
            77.49861111111112,
            28.752200068618773
          ]
        ]
      }
    }
  ]
}