{"type": "FeatureCollection", "features": [{"type": "Feature", "properties": {"elevation_m": 215.385, "kind": "low-elevation-cell", "threshold_p10_m": 215.476}, "geometry": {"type": "Point", "coordinates": [77.4988888888889, 28.753888888888888]}}, {"type": "Feature", "properties": {"elevation_m": 215.367, "kind": "low-elevation-cell", "threshold_p10_m": 215.476}, "geometry": {"type": "Point", "coordinates": [77.49916666666668, 28.753888888888888]}}, {"type": "Feature", "properties": {"elevation_m": 215.331, "kind": "low-elevation-cell", "threshold_p10_m": 215.476}, "geometry": {"type": "Point", "coordinates": [77.49861111111112, 28.75361111111111]}}, {"type": "Feature", "properties": {"elevation_m": 215.334, "kind": "low-elevation-cell", "threshold_p10_m": 215.476}, "geometry": {"type": "Point", "coordinates": [77.49805555555557, 28.75333333333333]}}, {"type": "Feature", "properties": {"elevation_m": 215.194, "kind": "low-elevation-cell", "threshold_p10_m": 215.476}, "geometry": {"type": "Point", "coordinates": [77.49833333333335, 28.75333333333333]}}, {"type": "Feature", "properties": {"elevation_m": 215.459, "kind": "low-elevation-cell", "threshold_p10_m": 215.476}, "geometry": {"type": "Point", "coordinates": [77.49833333333335, 28.753055555555555]}}, {"type": "Feature", "properties": {"elevation_m": 215.351, "kind": "low-elevation-cell", "threshold_p10_m": 215.476}, "geometry": {"type": "Point", "coordinates": [77.50000000000001, 28.752777777777776]}}, {"type": "Feature", "properties": {"elevation_m": 214.679, "kind": "low-elevation-cell", "threshold_p10_m": 215.476}, "geometry": {"type": "Point", "coordinates": [77.50027777777778, 28.752777777777776]}}, {"type": "Feature", "properties": {"elevation_m": 215.231, "kind": "low-elevation-cell", "threshold_p10_m": 215.476}, "geometry": {"type": "Point", "coordinates": [77.50055555555556, 28.752777777777776]}}, {"type": "Feature", "properties": {"elevation_m": 214.948, "kind": "low-elevation-cell", "threshold_p10_m": 215.476}, "geometry": {"type": "Point", "coordinates": [77.50027777777778, 28.752499999999998]}}]}