{
  "type": "FeatureCollection",
  "name": "KIET GROUP OF INSTITUTIONS OSM campus boundary",
  "features": [
    {
      "type": "Feature",
      "properties": {
        "osm_way_id": 835252667,
        "name": "KIET GROUP OF INSTITUTIONS",
        "source": "OpenStreetMap API",
        "license": "ODbL"
      },
      "geometry": {
        "type": "Polygon",
        "coordinates": [
          [
            [
              77.4961332,
              28.7542239
            ],
            [
              77.4962156,
              28.7541375
            ],
            [
              77.4970138,
              28.7534284
            ],
            [
              77.4973385,
              28.7536474
            ],
            [
              77.4974135,
              28.753568
            ],
            [
              77.4975156,
              28.75346
            ],
            [
              77.4981718,
              28.754203
            ],
            [
              77.4985605,
              28.7539208
            ],
            [
              77.4987751,
              28.7541886
            ],
            [
              77.499419,
              28.7537149
            ],
            [
              77.4997518,
              28.7535461
            ],
            [
              77.500168,
              28.7535258
            ],
            [
              77.5001896,
              28.7535247
            ],
            [
              77.5004149,
              28.7536858
            ],
            [
              77.5006851,
              28.7536327
            ],
            [
              77.5006918,
              28.753632
            ],
            [
              77.5006796,
              28.7532213
            ],
            [
              77.5009048,
              28.7530911
            ],
            [
              77.5010837,
              28.7529878
            ],
            [
              77.5008605,
              28.7527496
            ],
            [
              77.4991466,
              28.7509201
            ],
            [
              77.4985778,
              28.7514537
            ],
            [
              77.4976883,
              28.7522459
            ],
            [
              77.4972489,
              28.752636
            ],
            [
              77.4968823,
              28.7529802
            ],
            [
              77.4968968,
              28.7530202
            ],
            [
              77.4969282,
              28.7530581
            ],
            [
              77.4968731,
              28.7531144
            ],
            [
              77.4968722,
              28.7531726
            ],
            [
              77.4960035,
              28.7539493
            ],
            [
              77.4959414,
              28.7540137
            ],
            [
              77.4961332,
              28.7542239
            ]
          ]
        ]
      }
    }
  ]
}