{"type": "FeatureCollection", "name": "KIET campus context", "features": [{"type": "Feature", "properties": {"kind": "building", "name": "", "building": "yes", "leisure": "", "sport": "", "osm_id": 750936983}, "geometry": {"type": "Polygon", "coordinates": [[[77.495086, 28.752453], [77.495188, 28.752585], [77.495158, 28.752603], [77.495283, 28.752763], [77.495307, 28.752748], [77.495356, 28.752811], [77.49534, 28.752821], [77.495372, 28.752863], [77.495415, 28.752837], [77.495428, 28.752854], [77.495485, 28.75282], [77.49547, 28.752802], [77.495526, 28.752769], [77.495489, 28.752721], [77.495463, 28.752736], [77.49542, 28.752682], [77.495455, 28.752661], [77.495427, 28.752624], [77.495351, 28.75267], [77.495329, 28.752642], [77.495476, 28.752554], [77.495605, 28.752719], [77.495855, 28.75257], [77.495693, 28.752362], [77.495638, 28.752395], [77.495603, 28.75235], [77.495704, 28.752289], [77.495895, 28.752534], [77.496033, 28.752452], [77.495842, 28.752207], [77.496014, 28.752104], [77.496201, 28.752344], [77.496337, 28.752262], [77.49615, 28.752021], [77.496306, 28.751928], [77.496197, 28.751788], [77.495086, 28.752453]]]}}, {"type": "Feature", "properties": {"kind": "building", "name": "Auditorium", "building": "yes", "leisure": "", "sport": "", "osm_id": 835255357}, "geometry": {"type": "Polygon", "coordinates": [[[77.499661, 28.75207], [77.499703, 28.752111], [77.499882, 28.752277], [77.500103, 28.752105], [77.499896, 28.751908], [77.499661, 28.75207]]]}}, {"type": "Feature", "properties": {"kind": "pitch", "name": "", "building": "", "leisure": "pitch", "sport": "badminton", "osm_id": 835255358}, "geometry": {"type": "Polygon", "coordinates": [[[77.499917, 28.752283], [77.500206, 28.752063], [77.500318, 28.752179], [77.500029, 28.752399], [77.499917, 28.752283]]]}}, {"type": "Feature", "properties": {"kind": "pitch", "name": "", "building": "", "leisure": "pitch", "sport": "basketball", "osm_id": 835255359}, "geometry": {"type": "Polygon", "coordinates": [[[77.500705, 28.753085], [77.500725, 28.752833], [77.5009, 28.752831], [77.500885, 28.753085], [77.500862, 28.753085], [77.500705, 28.753085]]]}}, {"type": "Feature", "properties": {"kind": "pitch", "name": "", "building": "", "leisure": "pitch", "sport": "cricket", "osm_id": 835255360}, "geometry": {"type": "Polygon", "coordinates": [[[77.500005, 28.753012], [77.500021, 28.752449], [77.500332, 28.752242], [77.500768, 28.752703], [77.500701, 28.753064], [77.500612, 28.75321], [77.500314, 28.753204], [77.500295, 28.753011], [77.500005, 28.753012]]]}}, {"type": "Feature", "properties": {"kind": "pitch", "name": "", "building": "", "leisure": "pitch", "sport": "volleyball", "osm_id": 835255361}, "geometry": {"type": "Polygon", "coordinates": [[[77.500375, 28.75345], [77.500562, 28.753457], [77.500565, 28.753372], [77.500383, 28.753369], [77.500375, 28.75345]]]}}, {"type": "Feature", "properties": {"kind": "pitch", "name": "", "building": "", "leisure": "pitch", "sport": "volleyball", "osm_id": 835255362}, "geometry": {"type": "Polygon", "coordinates": [[[77.499579, 28.752564], [77.499794, 28.752548], [77.499794, 28.752457], [77.499569, 28.752473], [77.499579, 28.752564]]]}}, {"type": "Feature", "properties": {"kind": "pitch", "name": "", "building": "", "leisure": "pitch", "sport": "soccer", "osm_id": 835255363}, "geometry": {"type": "Polygon", "coordinates": [[[77.497622, 28.753553], [77.498348, 28.75294], [77.49894, 28.753501], [77.498206, 28.754167], [77.497622, 28.753553]]]}}, {"type": "Feature", "properties": {"kind": "building", "name": "Saraswati", "building": "dormitory", "leisure": "", "sport": "", "osm_id": 852005585}, "geometry": {"type": "Polygon", "coordinates": [[[77.499841, 28.75349], [77.500054, 28.7535], [77.500064, 28.753159], [77.499845, 28.753152], [77.499841, 28.75349]]]}}, {"type": "Feature", "properties": {"kind": "building", "name": "staff quartes 1", "building": "residential", "leisure": "", "sport": "", "osm_id": 852005586}, "geometry": {"type": "Polygon", "coordinates": [[[77.498942, 28.753072], [77.499161, 28.753078], [77.499164, 28.752982], [77.498946, 28.752976], [77.498942, 28.753072]]]}}, {"type": "Feature", "properties": {"kind": "building", "name": "staff quarters 2", "building": "residential", "leisure": "", "sport": "", "osm_id": 852005587}, "geometry": {"type": "Polygon", "coordinates": [[[77.499214, 28.752957], [77.499222, 28.752754], [77.499266, 28.752754], [77.499315, 28.752773], [77.499327, 28.752923], [77.499301, 28.75295], [77.499256, 28.752964], [77.499214, 28.752957]]]}}, {"type": "Feature", "properties": {"kind": "building", "name": "KSM", "building": "college", "leisure": "", "sport": "", "osm_id": 852005588}, "geometry": {"type": "Polygon", "coordinates": [[[77.498733, 28.752615], [77.498829, 28.752686], [77.498818, 28.752703], [77.498816, 28.75272], [77.498821, 28.752734], [77.49883, 28.752742], [77.498845, 28.75275], [77.49886, 28.752748], [77.49888, 28.752741], [77.498903, 28.752749], [77.498933, 28.752778], [77.498985, 28.752816], [77.499103, 28.752693], [77.498843, 28.752501], [77.498811, 28.752533], [77.498733, 28.752615]]]}}, {"type": "Feature", "properties": {"kind": "building", "name": "TBI", "building": "college", "leisure": "", "sport": "", "osm_id": 852005589}, "geometry": {"type": "Polygon", "coordinates": [[[77.499106, 28.752546], [77.499234, 28.752429], [77.499144, 28.752355], [77.499046, 28.752273], [77.498901, 28.752408], [77.498941, 28.752442], [77.49895, 28.752475], [77.499045, 28.752545], [77.499074, 28.752534], [77.499106, 28.752546]]]}}, {"type": "Feature", "properties": {"kind": "building", "name": "", "building": "yes", "leisure": "", "sport": "", "osm_id": 852005590}, "geometry": {"type": "Polygon", "coordinates": [[[77.499268, 28.752593], [77.499403, 28.752612], [77.499422, 28.752507], [77.49936, 28.752498], [77.499288, 28.752488], [77.499268, 28.752593]]]}}, {"type": "Feature", "properties": {"kind": "building", "name": "Chandragupta", "building": "college", "leisure": "", "sport": "", "osm_id": 852005591}, "geometry": {"type": "Polygon", "coordinates": [[[77.499021, 28.753656], [77.499098, 28.753597], [77.499186, 28.753686], [77.499104, 28.753757], [77.499213, 28.753861], [77.49936, 28.753753], [77.499074, 28.753446], [77.498925, 28.753558], [77.498931, 28.753564], [77.499021, 28.753656]]]}}, {"type": "Feature", "properties": {"kind": "building", "name": "guard room", "building": "college", "leisure": "", "sport": "", "osm_id": 852967119}, "geometry": {"type": "Polygon", "coordinates": [[[77.496059, 28.754034], [77.496124, 28.753976], [77.496204, 28.754045], [77.496157, 28.754087], [77.496139, 28.754103], [77.496059, 28.754034]]]}}, {"type": "Feature", "properties": {"kind": "building", "name": "G Block", "building": "college", "leisure": "", "sport": "", "osm_id": 852971159}, "geometry": {"type": "Polygon", "coordinates": [[[77.498302, 28.75288], [77.498651, 28.753145], [77.498841, 28.752953], [77.498492, 28.752688], [77.498302, 28.75288]]]}}, {"type": "Feature", "properties": {"kind": "building", "name": "C.V. Raman", "building": "college", "leisure": "", "sport": "", "osm_id": 852971160}, "geometry": {"type": "Polygon", "coordinates": [[[77.49887, 28.753358], [77.498754, 28.753238], [77.498754, 28.753178], [77.499037, 28.753177], [77.499038, 28.753358], [77.49887, 28.753358]]]}}, {"type": "Feature", "properties": {"kind": "building", "name": "B-Block", "building": "college", "leisure": "", "sport": "", "osm_id": 852971161}, "geometry": {"type": "Polygon", "coordinates": [[[77.497859, 28.752349], [77.497931, 28.752285], [77.497962, 28.752257], [77.498024, 28.752203], [77.498337, 28.752495], [77.498249, 28.752569], [77.498172, 28.752634], [77.497859, 28.752349]]]}}, {"type": "Feature", "properties": {"kind": "building", "name": "E-Block", "building": "college", "leisure": "", "sport": "", "osm_id": 852971162}, "geometry": {"type": "Polygon", "coordinates": [[[77.498079, 28.752215], [77.498363, 28.752475], [77.498495, 28.752364], [77.498664, 28.752221], [77.49838, 28.751963], [77.498295, 28.752035], [77.498218, 28.752055], [77.498206, 28.75207], [77.498189, 28.752092], [77.498181, 28.752129], [77.498079, 28.752215]]]}}, {"type": "Feature", "properties": {"kind": "building", "name": "tagore hall of residence", "building": "college", "leisure": "", "sport": "", "osm_id": 852971163}, "geometry": {"type": "Polygon", "coordinates": [[[77.498396, 28.751867], [77.498543, 28.751744], [77.498972, 28.752134], [77.498826, 28.752258], [77.498599, 28.752051], [77.498396, 28.751867]]]}}, {"type": "Feature", "properties": {"kind": "building", "name": "Aryabhatt Hall of Residence", "building": "dormitory", "leisure": "", "sport": "", "osm_id": 852971164}, "geometry": {"type": "Polygon", "coordinates": [[[77.499297, 28.751462], [77.499411, 28.75137], [77.499686, 28.751631], [77.499573, 28.751723], [77.49938, 28.75154], [77.499297, 28.751462]]]}}, {"type": "Feature", "properties": {"kind": "building", "name": "F Block", "building": "college", "leisure": "", "sport": "", "osm_id": 852971165}, "geometry": {"type": "Polygon", "coordinates": [[[77.498694, 28.751683], [77.498727, 28.751714], [77.498807, 28.751787], [77.499077, 28.75153], [77.49897, 28.751436], [77.498694, 28.751683]]]}}, {"type": "Feature", "properties": {"kind": "building", "name": "KSOP", "building": "college", "leisure": "", "sport": "", "osm_id": 852971166}, "geometry": {"type": "Polygon", "coordinates": [[[77.49897, 28.751436], [77.498911, 28.751383], [77.49888, 28.751355], [77.499139, 28.751129], [77.499337, 28.751304], [77.499077, 28.75153], [77.49897, 28.751436]]]}}, {"type": "Feature", "properties": {"kind": "building", "name": "Vivekananda Hall of Residence", "building": "dormitory", "leisure": "", "sport": "", "osm_id": 852971167}, "geometry": {"type": "Polygon", "coordinates": [[[77.499024, 28.751737], [77.499106, 28.75181], [77.499257, 28.75169], [77.499257, 28.751709], [77.499272, 28.751724], [77.499289, 28.751736], [77.499308, 28.751727], [77.499324, 28.751717], [77.499335, 28.751701], [77.499467, 28.751816], [77.499556, 28.751739], [77.499294, 28.751505], [77.499024, 28.751737]]]}}, {"type": "Feature", "properties": {"kind": "building", "name": "MPC", "building": "college", "leisure": "", "sport": "", "osm_id": 852971168}, "geometry": {"type": "Polygon", "coordinates": [[[77.498829, 28.751804], [77.498891, 28.751857], [77.498976, 28.75193], [77.499073, 28.751843], [77.498932, 28.751721], [77.498829, 28.751804]]]}}, {"type": "Feature", "properties": {"kind": "building", "name": "", "building": "college", "leisure": "", "sport": "", "osm_id": 852971169}, "geometry": {"type": "Polygon", "coordinates": [[[77.499125, 28.751864], [77.499194, 28.751813], [77.49922, 28.751836], [77.499282, 28.751895], [77.499206, 28.75195], [77.499125, 28.751864]]]}}, {"type": "Feature", "properties": {"kind": "building", "name": "C block", "building": "college", "leisure": "", "sport": "", "osm_id": 852971170}, "geometry": {"type": "Polygon", "coordinates": [[[77.49727, 28.75262], [77.498239, 28.751777], [77.498327, 28.751855], [77.497913, 28.752214], [77.497882, 28.752242], [77.497643, 28.752444], [77.49763, 28.752459], [77.497358, 28.752698], [77.49727, 28.75262]]]}}, {"type": "Feature", "properties": {"kind": "building", "name": "", "building": "college", "leisure": "", "sport": "", "osm_id": 852971171}, "geometry": {"type": "Polygon", "coordinates": [[[77.497882, 28.752242], [77.497905, 28.752262], [77.497931, 28.752285], [77.497962, 28.752257], [77.497938, 28.752235], [77.497913, 28.752214], [77.497882, 28.752242]]]}}, {"type": "Feature", "properties": {"kind": "building", "name": "D Block", "building": "college", "leisure": "", "sport": "", "osm_id": 852971174}, "geometry": {"type": "Polygon", "coordinates": [[[77.49763, 28.752459], [77.497655, 28.752477], [77.497695, 28.752507], [77.497682, 28.752521], [77.497706, 28.752539], [77.497617, 28.752541], [77.497619, 28.752592], [77.49764, 28.752648], [77.497672, 28.752677], [77.497722, 28.752679], [77.49772, 28.752707], [77.49777, 28.752709], [77.497782, 28.75269], [77.497845, 28.752702], [77.497911, 28.75266], [77.497946, 28.752604], [77.497837, 28.752561], [77.497908, 28.752473], [77.497758, 28.752431], [77.497752, 28.752496], [77.49771, 28.752493], [77.49767, 28.752464], [77.497643, 28.752444], [77.49763, 28.752459]]]}}, {"type": "Feature", "properties": {"kind": "building", "name": "A block", "building": "college", "leisure": "", "sport": "", "osm_id": 853353580}, "geometry": {"type": "Polygon", "coordinates": [[[77.496926, 28.75318], [77.496998, 28.753238], [77.497126, 28.753342], [77.49741, 28.753072], [77.497209, 28.752909], [77.496926, 28.75318]]]}}, {"type": "Feature", "properties": {"kind": "building", "name": "big treat", "building": "yes", "leisure": "", "sport": "", "osm_id": 853355725}, "geometry": {"type": "Polygon", "coordinates": [[[77.498697, 28.751615], [77.498717, 28.751597], [77.498739, 28.751617], [77.498719, 28.751635], [77.498697, 28.751615]]]}}, {"type": "Feature", "properties": {"kind": "building", "name": "amul", "building": "yes", "leisure": "", "sport": "", "osm_id": 853355726}, "geometry": {"type": "Polygon", "coordinates": [[[77.498723, 28.75254], [77.498758, 28.752506], [77.498796, 28.752536], [77.498761, 28.75257], [77.498723, 28.75254]]]}}, {"type": "Feature", "properties": {"kind": "building", "name": "H-Block", "building": "college", "leisure": "", "sport": "", "osm_id": 1137055973}, "geometry": {"type": "Polygon", "coordinates": [[[77.497655, 28.752944], [77.497747, 28.753026], [77.498166, 28.752667], [77.498074, 28.752585], [77.497655, 28.752944]]]}}, {"type": "Feature", "properties": {"kind": "building", "name": "", "building": "yes", "leisure": "", "sport": "", "osm_id": 1187198505}, "geometry": {"type": "Polygon", "coordinates": [[[77.495979, 28.755994], [77.49579, 28.755848], [77.495912, 28.755726], [77.496101, 28.755872], [77.495979, 28.755994]]]}}, {"type": "Feature", "properties": {"kind": "building", "name": "IC", "building": "yes", "leisure": "", "sport": "", "osm_id": 1507069533}, "geometry": {"type": "Polygon", "coordinates": [[[77.497352, 28.753], [77.497447, 28.753079], [77.497813, 28.752785], [77.497692, 28.752696], [77.497553, 28.752814], [77.497352, 28.753]]]}}, {"type": "Feature", "properties": {"kind": "building", "name": "Admin", "building": "yes", "leisure": "", "sport": "", "osm_id": 1507069534}, "geometry": {"type": "Polygon", "coordinates": [[[77.497133, 28.753344], [77.497267, 28.75345], [77.497724, 28.753051], [77.497624, 28.752947], [77.497325, 28.753179], [77.497133, 28.753344]]]}}, {"type": "Feature", "properties": {"id": "marked-campus-boundary", "source": "user screenshot red outline", "confidence": "medium for pixel geometry; low for geographic transform", "kind": "boundary"}, "geometry": {"type": "Polygon", "coordinates": [[[77.4946146, 28.7535683], [77.494622, 28.7535166], [77.4948138, 28.7534778], [77.495013, 28.7533549], [77.4951827, 28.7531932], [77.4953228, 28.7529991], [77.4955884, 28.7527857], [77.4957286, 28.7525787], [77.4958688, 28.7524558], [77.496186, 28.7519578], [77.4963188, 28.7517961], [77.4964885, 28.7516797], [77.4969238, 28.7512916], [77.4975951, 28.7508583], [77.4977574, 28.7507807], [77.4978091, 28.7507354], [77.4978902, 28.7505737], [77.4980083, 28.7505737], [77.4979345, 28.7506448], [77.4978386, 28.7508195], [77.4969754, 28.7513563], [77.4963557, 28.7518867], [77.4959426, 28.7525076], [77.4958171, 28.7526111], [77.4956548, 28.7528439], [77.4953745, 28.7530767], [77.495131, 28.7533743], [77.4948433, 28.753536], [77.4948433, 28.7537365], [77.4951605, 28.7539111], [77.4954114, 28.7539046], [77.4955368, 28.7537559], [77.4956991, 28.75362], [77.4961122, 28.7531026], [77.4963114, 28.7529668], [77.4964073, 28.7529733], [77.4965254, 28.7530444], [77.4967098, 28.7532514], [77.496968, 28.7532578], [77.497123, 28.7531673], [77.4972336, 28.7531802], [77.4973517, 28.7532902], [77.4974033, 28.7533937], [77.4977205, 28.75362], [77.4978902, 28.7538141], [77.4981189, 28.7538141], [77.4983107, 28.7536524], [77.4988124, 28.7533678], [77.4990485, 28.7530703], [77.4990927, 28.7530703], [77.4991223, 28.7531026], [77.4991813, 28.7534131], [77.4993731, 28.7534972], [77.4996239, 28.7534972], [77.4999043, 28.7532708], [77.5001403, 28.7531479], [77.5012322, 28.753135], [77.501306, 28.7531156], [77.501424, 28.753025], [77.5015052, 28.7528116], [77.5015052, 28.7526175], [77.5013871, 28.7525723], [77.5013503, 28.7524817], [77.5015568, 28.7523912], [77.501579, 28.7521712], [77.5015863, 28.7523394], [77.5017929, 28.7523588], [77.5020437, 28.752417], [77.5022651, 28.752417], [77.5022724, 28.7521066], [77.5022208, 28.752016], [77.5020806, 28.7518802], [77.5019552, 28.7516344], [77.5018077, 28.7514598], [77.5015199, 28.7512011], [77.5014093, 28.7511493], [77.5012396, 28.751007], [77.5009666, 28.7508647], [77.5008928, 28.750619], [77.5008043, 28.7505737], [77.500915, 28.7505737], [77.500915, 28.7505996], [77.500974, 28.7506254], [77.5009814, 28.7507419], [77.5010552, 28.7508453], [77.5012543, 28.7509294], [77.5014462, 28.7510782], [77.5015863, 28.7511493], [77.5018593, 28.7513951], [77.5020216, 28.7515762], [77.5021544, 28.7518285], [77.5023167, 28.7519966], [77.5023757, 28.7521195], [77.5023757, 28.7522359], [77.5024643, 28.7523329], [77.5023905, 28.7524752], [77.5023093, 28.7525334], [77.5018593, 28.7524688], [77.5016306, 28.7524688], [77.5016232, 28.7527534], [77.5015568, 28.7528956], [77.5015347, 28.7530509], [77.501306, 28.7532061], [77.5005682, 28.7532061], [77.5001256, 28.7532384], [77.4997641, 28.7534972], [77.4997641, 28.7535748], [77.4997346, 28.7536006], [77.4996239, 28.7536006], [77.4991591, 28.7535101], [77.4991001, 28.753426], [77.4988714, 28.753426], [77.4983402, 28.75373], [77.4981337, 28.753924], [77.498023, 28.7539628], [77.4978533, 28.7538982], [77.4976172, 28.7536524], [77.4973812, 28.7534972], [77.4972557, 28.7533161], [77.4970344, 28.7533161], [77.496909, 28.7533937], [77.4968205, 28.7534066], [77.4966287, 28.7533096], [77.496459, 28.7531026], [77.4962377, 28.7531026], [77.4959647, 28.7534001], [77.495736, 28.7537106], [77.4956106, 28.7537947], [77.4954852, 28.7539564], [77.4953524, 28.7540275], [77.4951605, 28.7540016], [77.4948286, 28.7538335], [77.4946146, 28.7535683]]]}}, {"type": "Feature", "properties": {"name": "Jayant Hostel", "category": "hostel", "source": "screenshot label", "confidence": "medium for label position; low for exact facility centroid", "kind": "label"}, "geometry": {"type": "Point", "coordinates": [77.4941277, 28.7535748]}, "image_pixel": {"x": 480, "y": 415}}, {"type": "Feature", "properties": {"name": "BEAST A Fitness Junction", "category": "fitness", "source": "screenshot label", "confidence": "medium for label position; low for exact facility centroid", "kind": "label"}, "geometry": {"type": "Point", "coordinates": [77.4943121, 28.7533161]}, "image_pixel": {"x": 505, "y": 455}}, {"type": "Feature", "properties": {"name": "KIET Group of Institutions", "category": "campus anchor", "source": "screenshot label", "confidence": "medium for label position; low for exact facility centroid", "kind": "label"}, "geometry": {"type": "Point", "coordinates": [77.4953819, 28.7533484]}, "image_pixel": {"x": 650, "y": 450}}, {"type": "Feature", "properties": {"name": "KIET Football Ground", "category": "sports ground", "source": "screenshot label", "confidence": "medium for label position; low for exact facility centroid", "kind": "label"}, "geometry": {"type": "Point", "coordinates": [77.4964516, 28.7535424]}, "image_pixel": {"x": 795, "y": 420}}, {"type": "Feature", "properties": {"name": "KIET FC playground", "category": "sports ground", "source": "screenshot label", "confidence": "medium for label position; low for exact facility centroid", "kind": "label"}, "geometry": {"type": "Point", "coordinates": [77.4980009, 28.7539952]}, "image_pixel": {"x": 1005, "y": 350}}, {"type": "Feature", "properties": {"name": "KIET SSB Academy", "category": "academy / training", "source": "screenshot label", "confidence": "medium for label position; low for exact facility centroid", "kind": "label"}, "geometry": {"type": "Point", "coordinates": [77.4988124, 28.7536071]}, "image_pixel": {"x": 1115, "y": 410}}, {"type": "Feature", "properties": {"name": "KIET Deemed To Be University", "category": "academic campus", "source": "screenshot label", "confidence": "medium for label position; low for exact facility centroid", "kind": "label"}, "geometry": {"type": "Point", "coordinates": [77.4974107, 28.7529927]}, "image_pixel": {"x": 925, "y": 505}}, {"type": "Feature", "properties": {"name": "KIET Cricket Ground", "category": "sports ground", "source": "screenshot label", "confidence": "medium for label position; low for exact facility centroid", "kind": "label"}, "geometry": {"type": "Point", "coordinates": [77.4989599, 28.7528956]}, "image_pixel": {"x": 1135, "y": 520}}, {"type": "Feature", "properties": {"name": "KIET Temple", "category": "temple", "source": "screenshot label", "confidence": "medium for label position; low for exact facility centroid", "kind": "label"}, "geometry": {"type": "Point", "coordinates": [77.4977427, 28.7524429]}, "image_pixel": {"x": 970, "y": 590}}, {"type": "Feature", "properties": {"name": "Inn0geeks", "category": "student/innovation facility", "source": "screenshot label", "confidence": "medium for label position; low for exact facility centroid", "kind": "label"}, "geometry": {"type": "Point", "coordinates": [77.4966729, 28.7521842]}, "image_pixel": {"x": 825, "y": 630}}, {"type": "Feature", "properties": {"name": "Creative Cell Room", "category": "student/creative facility", "source": "screenshot label", "confidence": "medium for label position; low for exact facility centroid", "kind": "label"}, "geometry": {"type": "Point", "coordinates": [77.4984066, 28.7518608]}, "image_pixel": {"x": 1060, "y": 680}}, {"type": "Feature", "properties": {"name": "KIET School of Pharmacy", "category": "school / academic facility", "source": "screenshot label", "confidence": "medium for label position; low for exact facility centroid", "kind": "label"}, "geometry": {"type": "Point", "coordinates": [77.4981853, 28.7511493]}, "image_pixel": {"x": 1030, "y": 790}}]}