{"type": "FeatureCollection", "name": "KIET roads", "features": [{"type": "Feature", "properties": {"name": "Meerut Road", "highway": "trunk", "service": "", "access": "", "tunnel": "", "ref": "NH34", "osm_id": 511107314}, "geometry": {"type": "LineString", "coordinates": [[77.518305, 28.778598], [77.518204, 28.778469], [77.517931, 28.778122], [77.517511, 28.777511], [77.517131, 28.777034], [77.516674, 28.77646], [77.516449, 28.776215], [77.515436, 28.775115], [77.515402, 28.775078], [77.513942, 28.773562], [77.51251, 28.772074], [77.511834, 28.771371], [77.510856, 28.770355], [77.510594, 28.770083], [77.510432, 28.769914], [77.510026, 28.769473], [77.50965, 28.769064], [77.509357, 28.768745], [77.509099, 28.768464], [77.509078, 28.768442], [77.508585, 28.767905], [77.508451, 28.767759], [77.507763, 28.767011], [77.507203, 28.766401], [77.505956, 28.765045], [77.50558, 28.764631], [77.505276, 28.764297], [77.504553, 28.763525], [77.504062, 28.762994], [77.503606, 28.762503], [77.503272, 28.762141], [77.503223, 28.762088], [77.502357, 28.761149], [77.50232, 28.761109], [77.501739, 28.760479], [77.501638, 28.76037], [77.501286, 28.75999], [77.501126, 28.759824], [77.500886, 28.759556], [77.500691, 28.759344], [77.500442, 28.759074], [77.500391, 28.759016], [77.500366, 28.758988], [77.500318, 28.758938], [77.499712, 28.758243], [77.499036, 28.757465], [77.498037, 28.756317], [77.497449, 28.755696], [77.497029, 28.755254], [77.496714, 28.754922], [77.4961, 28.754274], [77.49607, 28.754246]]}}, {"type": "Feature", "properties": {"name": "", "highway": "unclassified", "service": "", "access": "", "tunnel": "", "ref": "", "osm_id": 534766908}, "geometry": {"type": "LineString", "coordinates": [[77.500556, 28.758988], [77.500996, 28.758669], [77.502133, 28.757856], [77.502152, 28.757843], [77.502353, 28.757699], [77.503318, 28.75701], [77.503734, 28.756705], [77.504047, 28.756465], [77.504107, 28.756433], [77.504166, 28.756419], [77.504234, 28.75642], [77.504293, 28.756443], [77.50436, 28.756486], [77.504531, 28.756643], [77.504682, 28.756795], [77.504831, 28.756943], [77.50498, 28.757096], [77.505133, 28.757251], [77.50527, 28.757396], [77.505463, 28.7576], [77.505699, 28.757848], [77.505752, 28.757913], [77.505781, 28.75795], [77.505869, 28.758064], [77.505927, 28.758144], [77.506, 28.758257], [77.506204, 28.758568], [77.506258, 28.758639], [77.506385, 28.758786], [77.506532, 28.758974], [77.506673, 28.759166], [77.506748, 28.759286], [77.506848, 28.75946], [77.506934, 28.759635], [77.506999, 28.759799], [77.507021, 28.759871], [77.507036, 28.759922], [77.507043, 28.759975], [77.50704, 28.760012], [77.507021, 28.760044]]}}, {"type": "Feature", "properties": {"name": "", "highway": "residential", "service": "", "access": "", "tunnel": "", "ref": "", "osm_id": 605142004}, "geometry": {"type": "LineString", "coordinates": [[77.500893, 28.755892], [77.501201, 28.756239], [77.501623, 28.756696], [77.501628, 28.756705], [77.50163, 28.756715], [77.501626, 28.756726], [77.501604, 28.756765], [77.501603, 28.756777], [77.501605, 28.756784], [77.501845, 28.757088], [77.501854, 28.757101], [77.501858, 28.757115], [77.50185, 28.757128], [77.50164, 28.757237], [77.501452, 28.757359], [77.501387, 28.7574], [77.501161, 28.757547], [77.501149, 28.757552], [77.50114, 28.757552], [77.501127, 28.757548], [77.500856, 28.757283], [77.50084, 28.757278], [77.500823, 28.75728], [77.500812, 28.757289], [77.500614, 28.757468], [77.500292, 28.75776], [77.500155, 28.757869], [77.500062, 28.757944], [77.49986, 28.758115], [77.499712, 28.758243]]}}, {"type": "Feature", "properties": {"name": "", "highway": "residential", "service": "", "access": "", "tunnel": "", "ref": "", "osm_id": 605142005}, "geometry": {"type": "LineString", "coordinates": [[77.498037, 28.756317], [77.49835, 28.756118], [77.498648, 28.755913], [77.498952, 28.755709], [77.499225, 28.755521], [77.499412, 28.755392], [77.499501, 28.755333], [77.499765, 28.755146], [77.500025, 28.754961], [77.500136, 28.754882], [77.500298, 28.754776], [77.500331, 28.754754], [77.500583, 28.754592], [77.500846, 28.754411], [77.500914, 28.754365], [77.501113, 28.754237], [77.501307, 28.754104], [77.501386, 28.754036], [77.501562, 28.753889], [77.501608, 28.753861], [77.50164, 28.753848]]}}, {"type": "Feature", "properties": {"name": "", "highway": "unclassified", "service": "", "access": "", "tunnel": "", "ref": "", "osm_id": 605145390}, "geometry": {"type": "LineString", "coordinates": [[77.4944, 28.752721], [77.494341, 28.752758], [77.494155, 28.752862], [77.493915, 28.753008], [77.493825, 28.753064], [77.493476, 28.753256], [77.493297, 28.753325], [77.493274, 28.753331], [77.493056, 28.753385], [77.492468, 28.753501], [77.492105, 28.753585], [77.492021, 28.753604], [77.491804, 28.753657], [77.491615, 28.753703], [77.491557, 28.753716], [77.491434, 28.753745], [77.491403, 28.75376], [77.491373, 28.753774], [77.491329, 28.753813], [77.491284, 28.753892], [77.491261, 28.753932], [77.491147, 28.754081], [77.491074, 28.754154], [77.491057, 28.754171], [77.490932, 28.754285], [77.490864, 28.754347], [77.490656, 28.754539], [77.490593, 28.754596], [77.490523, 28.754671], [77.490478, 28.75472], [77.490453, 28.754781], [77.490444, 28.754843], [77.49044, 28.754943], [77.490451, 28.755131], [77.490495, 28.755358], [77.490515, 28.755464], [77.490598, 28.755787], [77.490624, 28.755889], [77.490657, 28.756052], [77.490665, 28.756188], [77.490649, 28.756475], [77.490657, 28.756635], [77.490714, 28.757078], [77.490746, 28.757492], [77.490753, 28.757573], [77.490764, 28.757711], [77.490789, 28.757854], [77.490848, 28.758112], [77.490858, 28.75814], [77.490926, 28.758321], [77.491014, 28.758487], [77.491089, 28.758627], [77.491191, 28.758771], [77.491222, 28.758812], [77.491457, 28.759117], [77.491498, 28.759171], [77.49153, 28.759212], [77.491621, 28.75933], [77.491703, 28.75946], [77.491762, 28.759604], [77.491833, 28.75977], [77.491993, 28.760292], [77.492057, 28.760522], [77.492127, 28.760857], [77.492267, 28.761387], [77.492313, 28.761605], [77.492407, 28.762044], [77.49244, 28.762166], [77.492531, 28.762498], [77.49255, 28.762569], [77.492637, 28.762883], [77.492694, 28.763062], [77.492783, 28.76334], [77.492827, 28.763476], [77.492846, 28.763591], [77.492862, 28.763702], [77.492862, 28.763764], [77.492844, 28.763837], [77.49277, 28.763986], [77.49276, 28.76403], [77.492758, 28.764085], [77.492782, 28.764215], [77.492806, 28.764367], [77.492856, 28.764595], [77.492907, 28.764827], [77.492989, 28.765128], [77.493052, 28.765446], [77.493137, 28.765737], [77.493196, 28.765945], [77.493312, 28.766224], [77.493318, 28.766283], [77.49332, 28.766307], [77.493311, 28.766379], [77.493157, 28.76686], [77.49312, 28.766935], [77.492989, 28.767127], [77.492893, 28.767315], [77.492853, 28.767386], [77.492816, 28.767482], [77.492788, 28.767603], [77.492688, 28.768048], [77.492681, 28.768132], [77.492685, 28.768289], [77.492678, 28.768372]]}}, {"type": "Feature", "properties": {"name": "Meerut Road", "highway": "trunk", "service": "", "access": "", "tunnel": "", "ref": "NH34", "osm_id": 628999933}, "geometry": {"type": "LineString", "coordinates": [[77.49607, 28.754246], [77.496036, 28.75421], [77.495898, 28.754066], [77.495704, 28.75386], [77.495496, 28.75364], [77.495071, 28.753188], [77.493427, 28.751442], [77.493321, 28.75133], [77.49288, 28.750927], [77.492445, 28.750528], [77.49234, 28.750432], [77.492169, 28.750276], [77.491944, 28.750069], [77.491659, 28.749809], [77.491411, 28.749582], [77.49122, 28.749432], [77.489376, 28.747985], [77.488648, 28.747414], [77.487936, 28.746855]]}}, {"type": "Feature", "properties": {"name": "", "highway": "tertiary", "service": "", "access": "", "tunnel": "", "ref": "", "osm_id": 645135257}, "geometry": {"type": "LineString", "coordinates": [[77.508037, 28.758303], [77.508017, 28.758366], [77.507941, 28.758401], [77.507812, 28.758407], [77.50774, 28.758358], [77.507731, 28.758275], [77.507744, 28.758133], [77.507719, 28.75807], [77.507699, 28.758028], [77.507321, 28.757672], [77.507127, 28.757471], [77.506927, 28.757285], [77.506711, 28.75708], [77.506284, 28.756656], [77.506124, 28.756508], [77.505945, 28.756342], [77.505853, 28.756269], [77.505777, 28.756222], [77.505693, 28.756185], [77.505601, 28.756157], [77.505499, 28.756135], [77.505409, 28.75612], [77.505275, 28.7561], [77.505023, 28.756063], [77.504801, 28.756026], [77.504735, 28.756007], [77.504698, 28.755982], [77.504683, 28.755961], [77.504681, 28.755856], [77.504689, 28.755776], [77.504784, 28.755444], [77.504796, 28.75539], [77.504804, 28.755324], [77.504807, 28.755272], [77.504805, 28.755199], [77.504783, 28.75505], [77.50476, 28.754866], [77.504745, 28.754735], [77.504738, 28.754676], [77.504738, 28.754651], [77.504739, 28.754593], [77.504742, 28.754527], [77.504752, 28.754432], [77.504816, 28.754132], [77.504829, 28.754071], [77.504914, 28.753765], [77.504979, 28.753471], [77.505005, 28.753366], [77.505015, 28.753296], [77.505018, 28.753272], [77.505026, 28.753175], [77.505021, 28.75308], [77.505013, 28.753009], [77.504991, 28.75292], [77.504959, 28.75283], [77.504896, 28.752702], [77.504815, 28.752558], [77.504795, 28.752522], [77.504722, 28.752391], [77.504681, 28.752312], [77.504661, 28.75225], [77.504652, 28.752207], [77.504653, 28.752129], [77.504688, 28.752056], [77.504756, 28.751944], [77.504816, 28.75186], [77.504906, 28.751741], [77.504991, 28.751649], [77.505038, 28.75161], [77.505092, 28.751575], [77.505242, 28.751496], [77.505456, 28.751381], [77.505506, 28.751344], [77.505544, 28.751308], [77.505568, 28.751271], [77.505632, 28.751119], [77.505712, 28.750885], [77.505746, 28.750778], [77.505774, 28.750674], [77.505783, 28.750608], [77.505784, 28.750536], [77.505776, 28.750477], [77.50575, 28.750365], [77.505727, 28.750304], [77.505703, 28.750232], [77.5057, 28.750178], [77.505714, 28.750119], [77.505743, 28.750058], [77.505815, 28.749964], [77.505902, 28.749867], [77.505949, 28.749814], [77.505978, 28.749763], [77.506009, 28.749677], [77.506027, 28.749598], [77.50616, 28.749004], [77.506214, 28.748771], [77.506281, 28.74854], [77.506299, 28.748494], [77.506324, 28.748436], [77.506375, 28.748352], [77.50646, 28.748246], [77.506511, 28.748182], [77.50654, 28.748135], [77.506569, 28.748086], [77.50659, 28.748032], [77.506723, 28.747681], [77.507077, 28.746742], [77.507169, 28.746515], [77.507256, 28.7463], [77.50734, 28.746088], [77.507375, 28.746015], [77.507391, 28.745988], [77.50741, 28.745964], [77.507439, 28.745936], [77.507465, 28.74591], [77.507474, 28.745888], [77.50748, 28.745864], [77.507477, 28.745806], [77.507462, 28.745759], [77.507451, 28.745732], [77.507433, 28.745691], [77.507415, 28.745659], [77.507376, 28.745609], [77.507332, 28.745546], [77.507254, 28.745444], [77.507201, 28.745386], [77.507137, 28.745324], [77.506886, 28.745116], [77.506749, 28.745012], [77.50672, 28.744973], [77.506695, 28.744928], [77.506686, 28.744876], [77.506703, 28.744814], [77.506723, 28.744778], [77.506775, 28.744727], [77.506903, 28.744618], [77.50693, 28.744578], [77.506941, 28.744549], [77.506945, 28.744514], [77.506933, 28.744472], [77.506901, 28.744406], [77.506792, 28.744239], [77.506715, 28.744107], [77.506697, 28.744063], [77.506678, 28.744004], [77.506601, 28.743402], [77.506583, 28.743245], [77.506579, 28.743195], [77.506587, 28.743147], [77.506611, 28.743105], [77.506646, 28.743067], [77.506704, 28.743034], [77.506829, 28.74298], [77.506984, 28.742919], [77.507122, 28.742858], [77.50728, 28.742777], [77.507407, 28.742715], [77.50743, 28.742703], [77.507522, 28.742654], [77.507563, 28.742624], [77.507598, 28.742588], [77.507618, 28.742541], [77.507615, 28.742489], [77.507595, 28.742452], [77.507346, 28.7422], [77.507325, 28.742154], [77.507321, 28.742115], [77.507325, 28.742075], [77.507354, 28.742038], [77.508047, 28.741426], [77.508175, 28.741299], [77.508206, 28.741255], [77.508215, 28.741222], [77.50822, 28.74118], [77.508206, 28.74113], [77.508169, 28.741076], [77.50803, 28.740899], [77.508009, 28.740861], [77.507992, 28.740819], [77.507986, 28.740769], [77.507991, 28.740732], [77.508005, 28.740682], [77.50804, 28.740581], [77.508048, 28.740542], [77.508047, 28.740508], [77.508041, 28.740467], [77.508013, 28.740385], [77.507972, 28.740266], [77.507917, 28.740107], [77.507907, 28.740059], [77.507907, 28.740018], [77.507919, 28.739987], [77.507967, 28.739933], [77.508309, 28.73964], [77.508678, 28.739338], [77.509154, 28.738937], [77.509898, 28.738299], [77.510311, 28.737955], [77.510629, 28.737689], [77.511414, 28.737054], [77.511707, 28.736812], [77.512145, 28.736451], [77.513034, 28.735697], [77.513101, 28.735663], [77.513146, 28.735655], [77.513229, 28.735662], [77.513772, 28.735875], [77.514083, 28.736019], [77.514317, 28.736124], [77.51437, 28.73613], [77.514426, 28.736118], [77.514493, 28.736079], [77.515109, 28.73547], [77.515678, 28.734908], [77.51669, 28.733879], [77.516773, 28.733777], [77.516793, 28.733707], [77.516775, 28.733653], [77.51675, 28.733612], [77.516705, 28.733554], [77.516511, 28.733327], [77.516391, 28.7332], [77.51625, 28.73306], [77.515983, 28.732828], [77.515694, 28.732583], [77.515597, 28.732498], [77.515454, 28.732374], [77.515311, 28.732249], [77.515243, 28.732204], [77.515179, 28.732174], [77.515128, 28.732164], [77.515075, 28.732163], [77.514946, 28.732166], [77.514817, 28.732168], [77.514774, 28.732163], [77.514725, 28.732147], [77.514691, 28.732122], [77.514676, 28.732088], [77.514672, 28.732044], [77.514689, 28.731997], [77.514724, 28.731953], [77.514777, 28.731897], [77.51481, 28.731849], [77.514819, 28.731821], [77.514821, 28.731789], [77.514811, 28.731753], [77.514792, 28.731728], [77.514722, 28.731656], [77.514703, 28.73164], [77.513968, 28.730981], [77.513335, 28.730407], [77.513153, 28.730241], [77.512865, 28.72997], [77.512378, 28.729596], [77.512305, 28.729527], [77.512255, 28.72948], [77.512131, 28.729348], [77.511522, 28.728682], [77.511496, 28.728642], [77.511499, 28.728629], [77.511517, 28.728604], [77.511795, 28.728377], [77.513704, 28.726834], [77.514633, 28.726019], [77.515734, 28.725025], [77.515781, 28.724972], [77.515805, 28.724922], [77.515799, 28.724861], [77.515763, 28.72481], [77.514924, 28.723966], [77.51475, 28.72376], [77.513832, 28.722803]]}}, {"type": "Feature", "properties": {"name": "", "highway": "tertiary", "service": "", "access": "", "tunnel": "", "ref": "", "osm_id": 662571582}, "geometry": {"type": "LineString", "coordinates": [[77.506395, 28.756558], [77.506174, 28.756329], [77.506013, 28.756206], [77.50582, 28.756084], [77.505575, 28.755975], [77.505358, 28.755919], [77.505165, 28.755884], [77.505016, 28.755875], [77.504864, 28.755873], [77.504414, 28.755969], [77.503954, 28.756135], [77.503553, 28.756346], [77.503271, 28.756554], [77.502515, 28.757172]]}}, {"type": "Feature", "properties": {"name": "", "highway": "tertiary", "service": "", "access": "", "tunnel": "", "ref": "", "osm_id": 662571583}, "geometry": {"type": "LineString", "coordinates": [[77.502515, 28.757172], [77.501716, 28.757826], [77.501034, 28.758377]]}}, {"type": "Feature", "properties": {"name": "", "highway": "residential", "service": "", "access": "", "tunnel": "", "ref": "", "osm_id": 762180417}, "geometry": {"type": "LineString", "coordinates": [[77.493915, 28.753008], [77.494153, 28.753278], [77.494184, 28.753313], [77.494377, 28.753516], [77.494389, 28.753533], [77.494394, 28.753551], [77.494384, 28.753571], [77.494133, 28.753877], [77.494107, 28.753912], [77.493966, 28.754093], [77.493939, 28.754128], [77.493843, 28.754277], [77.493814, 28.754329], [77.493777, 28.754412], [77.493717, 28.754565], [77.493694, 28.754606], [77.493621, 28.754717]]}}, {"type": "Feature", "properties": {"name": "", "highway": "residential", "service": "", "access": "", "tunnel": "", "ref": "", "osm_id": 762180418}, "geometry": {"type": "LineString", "coordinates": [[77.495959, 28.754374], [77.495506, 28.754745], [77.495233, 28.754946], [77.494966, 28.755165], [77.494686, 28.755392], [77.494602, 28.755452]]}}, {"type": "Feature", "properties": {"name": "", "highway": "residential", "service": "", "access": "", "tunnel": "", "ref": "", "osm_id": 762180419}, "geometry": {"type": "LineString", "coordinates": [[77.495506, 28.754745], [77.494172, 28.753902], [77.494133, 28.753877]]}}, {"type": "Feature", "properties": {"name": "", "highway": "residential", "service": "", "access": "", "tunnel": "", "ref": "", "osm_id": 762180420}, "geometry": {"type": "LineString", "coordinates": [[77.495233, 28.754946], [77.493939, 28.754128]]}}, {"type": "Feature", "properties": {"name": "", "highway": "residential", "service": "", "access": "", "tunnel": "", "ref": "", "osm_id": 762180421}, "geometry": {"type": "LineString", "coordinates": [[77.494966, 28.755165], [77.493777, 28.754412]]}}, {"type": "Feature", "properties": {"name": "", "highway": "residential", "service": "", "access": "", "tunnel": "", "ref": "", "osm_id": 762180422}, "geometry": {"type": "LineString", "coordinates": [[77.494686, 28.755392], [77.494379, 28.755184], [77.493621, 28.754717], [77.49288, 28.754234]]}}, {"type": "Feature", "properties": {"name": "", "highway": "residential", "service": "", "access": "", "tunnel": "", "ref": "", "osm_id": 762180423}, "geometry": {"type": "LineString", "coordinates": [[77.493939, 28.754128], [77.493663, 28.75395]]}}, {"type": "Feature", "properties": {"name": "", "highway": "residential", "service": "", "access": "", "tunnel": "", "ref": "", "osm_id": 762180424}, "geometry": {"type": "LineString", "coordinates": [[77.493777, 28.754412], [77.493348, 28.75414]]}}, {"type": "Feature", "properties": {"name": "", "highway": "residential", "service": "", "access": "", "tunnel": "", "ref": "", "osm_id": 762180426}, "geometry": {"type": "LineString", "coordinates": [[77.495959, 28.754374], [77.4961, 28.754274]]}}, {"type": "Feature", "properties": {"name": "", "highway": "service", "service": "", "access": "private", "tunnel": "", "ref": "", "osm_id": 852963064}, "geometry": {"type": "LineString", "coordinates": [[77.499899, 28.752977], [77.499909, 28.752405], [77.499893, 28.752348], [77.499859, 28.752308], [77.499683, 28.752133], [77.499611, 28.752123], [77.499424, 28.752138], [77.499389, 28.752149], [77.499342, 28.752153], [77.499232, 28.752157], [77.499187, 28.75215], [77.499153, 28.752132], [77.49912, 28.752108], [77.499105, 28.752095], [77.498859, 28.751878], [77.4987, 28.751738], [77.498628, 28.751674], [77.498616, 28.751669], [77.498605, 28.751668], [77.498593, 28.751674], [77.498364, 28.751872], [77.498166, 28.752041], [77.498026, 28.75216], [77.49801, 28.752174], [77.497938, 28.752235]]}}, {"type": "Feature", "properties": {"name": "", "highway": "service", "service": "", "access": "private", "tunnel": "", "ref": "", "osm_id": 852963065}, "geometry": {"type": "LineString", "coordinates": [[77.496036, 28.75421], [77.496186, 28.754112], [77.496716, 28.753618], [77.496921, 28.753427], [77.496992, 28.75338], [77.497013, 28.753371], [77.497029, 28.753367], [77.497048, 28.753371], [77.497229, 28.753515], [77.497248, 28.753523], [77.497264, 28.753525], [77.497282, 28.753518], [77.498315, 28.752627], [77.498419, 28.752537], [77.498456, 28.752504], [77.498551, 28.752418], [77.498584, 28.752388], [77.498618, 28.752357], [77.498648, 28.752339], [77.498677, 28.752327], [77.498747, 28.75231], [77.498808, 28.752293], [77.498894, 28.752269], [77.498922, 28.752256], [77.498992, 28.7522], [77.499022, 28.752172], [77.499105, 28.752095]]}}, {"type": "Feature", "properties": {"name": "", "highway": "service", "service": "", "access": "private", "tunnel": "", "ref": "", "osm_id": 852971172}, "geometry": {"type": "LineString", "coordinates": [[77.497905, 28.752262], [77.49767, 28.752464]]}}, {"type": "Feature", "properties": {"name": "", "highway": "service", "service": "", "access": "private", "tunnel": "yes", "ref": "", "osm_id": 852971173}, "geometry": {"type": "LineString", "coordinates": [[77.497938, 28.752235], [77.497905, 28.752262]]}}, {"type": "Feature", "properties": {"name": "", "highway": "service", "service": "", "access": "private", "tunnel": "", "ref": "", "osm_id": 852971175}, "geometry": {"type": "LineString", "coordinates": [[77.497655, 28.752477], [77.496893, 28.753143], [77.496887, 28.753153], [77.496884, 28.753163], [77.496886, 28.753175], [77.496902, 28.753201], [77.496902, 28.75321], [77.496898, 28.753218], [77.496889, 28.753228], [77.496575, 28.753506], [77.496039, 28.75398], [77.495898, 28.754066]]}}, {"type": "Feature", "properties": {"name": "", "highway": "service", "service": "", "access": "private", "tunnel": "building_passage", "ref": "", "osm_id": 852971176}, "geometry": {"type": "LineString", "coordinates": [[77.49767, 28.752464], [77.497655, 28.752477]]}}, {"type": "Feature", "properties": {"name": "", "highway": "footway", "service": "", "access": "", "tunnel": "", "ref": "", "osm_id": 854194278}, "geometry": {"type": "LineString", "coordinates": [[77.498584, 28.752388], [77.49872, 28.752492], [77.498731, 28.7525], [77.498638, 28.752602]]}}, {"type": "Feature", "properties": {"name": "", "highway": "footway", "service": "", "access": "", "tunnel": "", "ref": "", "osm_id": 854194279}, "geometry": {"type": "LineString", "coordinates": [[77.49872, 28.752492], [77.498736, 28.752476], [77.498788, 28.752425]]}}, {"type": "Feature", "properties": {"name": "", "highway": "footway", "service": "", "access": "", "tunnel": "", "ref": "", "osm_id": 854194280}, "geometry": {"type": "LineString", "coordinates": [[77.498736, 28.752476], [77.498811, 28.752533]]}}, {"type": "Feature", "properties": {"name": "", "highway": "footway", "service": "", "access": "", "tunnel": "", "ref": "", "osm_id": 854197001}, "geometry": {"type": "LineString", "coordinates": [[77.498456, 28.752504], [77.498765, 28.752755], [77.49878, 28.752767], [77.498803, 28.752747]]}}, {"type": "Feature", "properties": {"name": "", "highway": "footway", "service": "", "access": "", "tunnel": "", "ref": "", "osm_id": 854197002}, "geometry": {"type": "LineString", "coordinates": [[77.498765, 28.752755], [77.49873, 28.752783]]}}, {"type": "Feature", "properties": {"name": "", "highway": "footway", "service": "", "access": "", "tunnel": "", "ref": "", "osm_id": 854197003}, "geometry": {"type": "LineString", "coordinates": [[77.499334, 28.751732], [77.499366, 28.751758], [77.499427, 28.751808]]}}, {"type": "Feature", "properties": {"name": "", "highway": "footway", "service": "", "access": "", "tunnel": "", "ref": "", "osm_id": 854197004}, "geometry": {"type": "LineString", "coordinates": [[77.499334, 28.751732], [77.49931, 28.751739], [77.499301, 28.751741], [77.499288, 28.751741], [77.499276, 28.75174], [77.499256, 28.751721], [77.499247, 28.751727], [77.499178, 28.751779], [77.499336, 28.75191], [77.499346, 28.751924], [77.49912, 28.752108]]}}, {"type": "Feature", "properties": {"name": "", "highway": "footway", "service": "", "access": "", "tunnel": "", "ref": "", "osm_id": 854197005}, "geometry": {"type": "LineString", "coordinates": [[77.499288, 28.751741], [77.499289, 28.751736]]}}, {"type": "Feature", "properties": {"name": "", "highway": "footway", "service": "", "access": "", "tunnel": "", "ref": "", "osm_id": 854199659}, "geometry": {"type": "LineString", "coordinates": [[77.499424, 28.752138], [77.49953, 28.752021], [77.49954, 28.75201], [77.499553, 28.751996], [77.499431, 28.751885], [77.499434, 28.751873], [77.499577, 28.751741], [77.499365, 28.751556]]}}, {"type": "Feature", "properties": {"name": "", "highway": "footway", "service": "", "access": "", "tunnel": "", "ref": "", "osm_id": 854199660}, "geometry": {"type": "LineString", "coordinates": [[77.499365, 28.751556], [77.49938, 28.75154]]}}, {"type": "Feature", "properties": {"name": "", "highway": "footway", "service": "", "access": "", "tunnel": "", "ref": "", "osm_id": 854199661}, "geometry": {"type": "LineString", "coordinates": [[77.499346, 28.751924], [77.499386, 28.7519], [77.49953, 28.752021]]}}, {"type": "Feature", "properties": {"name": "", "highway": "footway", "service": "", "access": "", "tunnel": "", "ref": "", "osm_id": 854199664}, "geometry": {"type": "LineString", "coordinates": [[77.499022, 28.752172], [77.499166, 28.752205], [77.499219, 28.752246], [77.499251, 28.752282], [77.499309, 28.752288], [77.499343, 28.75225], [77.499365, 28.752207], [77.499389, 28.752149]]}}, {"type": "Feature", "properties": {"name": "", "highway": "footway", "service": "", "access": "", "tunnel": "", "ref": "", "osm_id": 854199665}, "geometry": {"type": "LineString", "coordinates": [[77.499251, 28.752282], [77.499144, 28.752355]]}}, {"type": "Feature", "properties": {"name": "", "highway": "footway", "service": "", "access": "", "tunnel": "", "ref": "", "osm_id": 854199666}, "geometry": {"type": "LineString", "coordinates": [[77.499424, 28.752138], [77.499437, 28.752203], [77.499439, 28.752253], [77.499375, 28.752433]]}}, {"type": "Feature", "properties": {"name": "", "highway": "steps", "service": "", "access": "", "tunnel": "", "ref": "", "osm_id": 854199667}, "geometry": {"type": "LineString", "coordinates": [[77.49936, 28.752498], [77.499375, 28.752433]]}}, {"type": "Feature", "properties": {"name": "", "highway": "footway", "service": "", "access": "", "tunnel": "", "ref": "", "osm_id": 854199668}, "geometry": {"type": "LineString", "coordinates": [[77.499683, 28.752133], [77.499703, 28.752111]]}}, {"type": "Feature", "properties": {"name": "", "highway": "footway", "service": "", "access": "", "tunnel": "", "ref": "", "osm_id": 854201805}, "geometry": {"type": "LineString", "coordinates": [[77.498364, 28.751872], [77.498575, 28.752073], [77.498808, 28.752293]]}}, {"type": "Feature", "properties": {"name": "", "highway": "footway", "service": "", "access": "", "tunnel": "", "ref": "", "osm_id": 854201806}, "geometry": {"type": "LineString", "coordinates": [[77.49801, 28.752174], [77.498419, 28.752537]]}}, {"type": "Feature", "properties": {"name": "", "highway": "footway", "service": "", "access": "", "tunnel": "", "ref": "", "osm_id": 854201807}, "geometry": {"type": "LineString", "coordinates": [[77.496889, 28.753228], [77.496951, 28.753282], [77.496993, 28.753319], [77.497029, 28.753367]]}}, {"type": "Feature", "properties": {"name": "", "highway": "footway", "service": "", "access": "", "tunnel": "", "ref": "", "osm_id": 854201808}, "geometry": {"type": "LineString", "coordinates": [[77.496951, 28.753282], [77.496998, 28.753238]]}}, {"type": "Feature", "properties": {"name": "", "highway": "footway", "service": "", "access": "", "tunnel": "", "ref": "", "osm_id": 854201809}, "geometry": {"type": "LineString", "coordinates": [[77.498605, 28.751668], [77.498911, 28.751383]]}}, {"type": "Feature", "properties": {"name": "", "highway": "footway", "service": "", "access": "", "tunnel": "", "ref": "", "osm_id": 854201810}, "geometry": {"type": "LineString", "coordinates": [[77.4987, 28.751738], [77.498727, 28.751714]]}}, {"type": "Feature", "properties": {"name": "", "highway": "footway", "service": "", "access": "", "tunnel": "", "ref": "", "osm_id": 854204445}, "geometry": {"type": "LineString", "coordinates": [[77.498166, 28.752041], [77.498206, 28.75207]]}}, {"type": "Feature", "properties": {"name": "", "highway": "footway", "service": "", "access": "", "tunnel": "", "ref": "", "osm_id": 854204446}, "geometry": {"type": "LineString", "coordinates": [[77.498599, 28.752051], [77.498575, 28.752073]]}}, {"type": "Feature", "properties": {"name": "", "highway": "footway", "service": "", "access": "", "tunnel": "", "ref": "", "osm_id": 854204447}, "geometry": {"type": "LineString", "coordinates": [[77.498859, 28.751878], [77.498891, 28.751857]]}}, {"type": "Feature", "properties": {"name": "", "highway": "footway", "service": "", "access": "", "tunnel": "", "ref": "", "osm_id": 854204448}, "geometry": {"type": "LineString", "coordinates": [[77.498315, 28.752627], [77.498249, 28.752569]]}}, {"type": "Feature", "properties": {"name": "", "highway": "footway", "service": "", "access": "", "tunnel": "", "ref": "", "osm_id": 854204449}, "geometry": {"type": "LineString", "coordinates": [[77.498495, 28.752364], [77.498551, 28.752418]]}}, {"type": "Feature", "properties": {"name": "", "highway": "residential", "service": "", "access": "", "tunnel": "", "ref": "", "osm_id": 1066653652}, "geometry": {"type": "LineString", "coordinates": [[77.503346, 28.749822], [77.503575, 28.749626], [77.503788, 28.749434], [77.50395, 28.749285], [77.504036, 28.7492], [77.504083, 28.749154], [77.504193, 28.749063], [77.504214, 28.749051], [77.504237, 28.749045], [77.504254, 28.749052], [77.50427, 28.749068], [77.504293, 28.749103], [77.504443, 28.749361], [77.504655, 28.749703], [77.50484, 28.749992], [77.504872, 28.750045], [77.505001, 28.750266]]}}, {"type": "Feature", "properties": {"name": "", "highway": "residential", "service": "", "access": "", "tunnel": "", "ref": "", "osm_id": 1066653653}, "geometry": {"type": "LineString", "coordinates": [[77.503644, 28.750265], [77.5043, 28.749895], [77.504655, 28.749703]]}}, {"type": "Feature", "properties": {"name": "", "highway": "residential", "service": "", "access": "", "tunnel": "", "ref": "", "osm_id": 1066653654}, "geometry": {"type": "LineString", "coordinates": [[77.503869, 28.7506], [77.504613, 28.750184], [77.504872, 28.750045]]}}, {"type": "Feature", "properties": {"name": "", "highway": "service", "service": "", "access": "", "tunnel": "", "ref": "", "osm_id": 1066653655}, "geometry": {"type": "LineString", "coordinates": [[77.504036, 28.7492], [77.503803, 28.748793], [77.503612, 28.748447]]}}, {"type": "Feature", "properties": {"name": "", "highway": "residential", "service": "", "access": "", "tunnel": "", "ref": "", "osm_id": 1068402052}, "geometry": {"type": "LineString", "coordinates": [[77.502133, 28.757856], [77.502474, 28.758256], [77.50255, 28.758343], [77.50279, 28.758622], [77.502853, 28.758693], [77.503056, 28.758923], [77.503137, 28.759014], [77.50321, 28.759084], [77.503323, 28.759204], [77.503439, 28.759318], [77.503523, 28.759399], [77.503563, 28.759438], [77.503771, 28.759645], [77.503923, 28.759792], [77.504075, 28.759938], [77.504198, 28.760082], [77.504406, 28.760297], [77.504513, 28.760413], [77.504662, 28.760572], [77.504888, 28.760824], [77.504909, 28.760848], [77.505101, 28.761061], [77.50532, 28.761295]]}}, {"type": "Feature", "properties": {"name": "", "highway": "residential", "service": "", "access": "", "tunnel": "", "ref": "", "osm_id": 1068403262}, "geometry": {"type": "LineString", "coordinates": [[77.503636, 28.758148], [77.503677, 28.758189], [77.503782, 28.758304], [77.503842, 28.75837], [77.503886, 28.758415], [77.503909, 28.758437], [77.50398, 28.758507], [77.504077, 28.758606], [77.504177, 28.758706], [77.504256, 28.758786], [77.504289, 28.758814], [77.504316, 28.758825], [77.504341, 28.758824], [77.50436, 28.758815], [77.504434, 28.758752]]}}, {"type": "Feature", "properties": {"name": "", "highway": "residential", "service": "", "access": "", "tunnel": "", "ref": "", "osm_id": 1068403264}, "geometry": {"type": "LineString", "coordinates": [[77.503137, 28.759014], [77.503452, 28.758753], [77.50351, 28.758709], [77.503567, 28.758669], [77.503663, 28.7586], [77.503909, 28.758437]]}}, {"type": "Feature", "properties": {"name": "", "highway": "residential", "service": "", "access": "", "tunnel": "", "ref": "", "osm_id": 1068405853}, "geometry": {"type": "LineString", "coordinates": [[77.505457, 28.758632], [77.505166, 28.758369], [77.505048, 28.758262], [77.505032, 28.758247], [77.504881, 28.758104], [77.504699, 28.757929]]}}, {"type": "Feature", "properties": {"name": "", "highway": "residential", "service": "", "access": "", "tunnel": "", "ref": "", "osm_id": 1068405854}, "geometry": {"type": "LineString", "coordinates": [[77.505096, 28.758992], [77.505003, 28.758924], [77.504951, 28.758881], [77.504907, 28.75884], [77.504831, 28.758772], [77.504782, 28.758727], [77.504629, 28.758591], [77.504483, 28.758451], [77.504354, 28.758322], [77.504222, 28.758195], [77.504213, 28.758186], [77.504105, 28.758075], [77.503988, 28.757941]]}}, {"type": "Feature", "properties": {"name": "", "highway": "residential", "service": "", "access": "", "tunnel": "", "ref": "", "osm_id": 1068405855}, "geometry": {"type": "LineString", "coordinates": [[77.503841, 28.758028], [77.503683, 28.757848], [77.503613, 28.757761], [77.503537, 28.757664], [77.503412, 28.757508]]}}, {"type": "Feature", "properties": {"name": "", "highway": "residential", "service": "", "access": "", "tunnel": "", "ref": "", "osm_id": 1068405856}, "geometry": {"type": "LineString", "coordinates": [[77.503782, 28.758304], [77.50384, 28.758268], [77.503873, 28.75825], [77.503897, 28.758244], [77.503922, 28.758245], [77.503935, 28.758251], [77.503951, 28.758262], [77.504101, 28.758421], [77.504316, 28.758636], [77.504434, 28.758752], [77.504454, 28.758769], [77.504476, 28.758789], [77.504525, 28.758836], [77.50458, 28.758893], [77.504659, 28.758975], [77.504736, 28.759045], [77.504825, 28.759126], [77.504913, 28.759207]]}}, {"type": "Feature", "properties": {"name": "", "highway": "residential", "service": "", "access": "", "tunnel": "", "ref": "", "osm_id": 1068470361}, "geometry": {"type": "LineString", "coordinates": [[77.504653, 28.752129], [77.504589, 28.752153], [77.504529, 28.752176], [77.504449, 28.752208], [77.504373, 28.752244], [77.504165, 28.752341], [77.504048, 28.752398], [77.504012, 28.752417], [77.50399, 28.75244], [77.503938, 28.752521], [77.503914, 28.752553], [77.50389, 28.752576], [77.503856, 28.752594], [77.503827, 28.752605], [77.503802, 28.7526], [77.503783, 28.752584], [77.503758, 28.752558], [77.503539, 28.752282]]}}, {"type": "Feature", "properties": {"name": "", "highway": "service", "service": "", "access": "", "tunnel": "", "ref": "", "osm_id": 1068470363}, "geometry": {"type": "LineString", "coordinates": [[77.504795, 28.752522], [77.505181, 28.752364]]}}, {"type": "Feature", "properties": {"name": "", "highway": "residential", "service": "", "access": "", "tunnel": "", "ref": "", "osm_id": 1068473958}, "geometry": {"type": "LineString", "coordinates": [[77.503587, 28.753772], [77.503547, 28.75375], [77.503491, 28.753715], [77.503416, 28.753668], [77.503269, 28.753569], [77.503096, 28.753442], [77.502948, 28.753328], [77.502797, 28.753204], [77.502786, 28.753193], [77.502783, 28.753179], [77.502788, 28.753166], [77.502857, 28.753112], [77.502866, 28.753094], [77.502864, 28.753072], [77.502854, 28.753055], [77.502677, 28.752875], [77.502473, 28.752672], [77.502302, 28.752497]]}}, {"type": "Feature", "properties": {"name": "", "highway": "residential", "service": "", "access": "", "tunnel": "", "ref": "", "osm_id": 1068473959}, "geometry": {"type": "LineString", "coordinates": [[77.504262, 28.754322], [77.504133, 28.754303], [77.504067, 28.75429], [77.504007, 28.754269], [77.503937, 28.754242], [77.503878, 28.754215], [77.503778, 28.754164], [77.503711, 28.754129], [77.503684, 28.754114], [77.50366, 28.754102], [77.503587, 28.754059], [77.503475, 28.753985], [77.503458, 28.753968], [77.50345, 28.753947], [77.503448, 28.753927], [77.50346, 28.753902], [77.503529, 28.753835], [77.503564, 28.7538], [77.503587, 28.753772], [77.503667, 28.753654], [77.503719, 28.753585], [77.503781, 28.753506], [77.503848, 28.753423]]}}, {"type": "Feature", "properties": {"name": "", "highway": "residential", "service": "", "access": "", "tunnel": "", "ref": "", "osm_id": 1068473960}, "geometry": {"type": "LineString", "coordinates": [[77.503781, 28.753506], [77.503587, 28.753381], [77.503529, 28.753339], [77.503491, 28.753307], [77.503439, 28.753258], [77.503369, 28.753188], [77.503332, 28.753152], [77.503155, 28.752977], [77.502844, 28.752668], [77.502585, 28.752399], [77.502565, 28.752372], [77.502561, 28.752349], [77.502574, 28.752331], [77.502681, 28.752235]]}}, {"type": "Feature", "properties": {"name": "", "highway": "residential", "service": "", "access": "", "tunnel": "", "ref": "", "osm_id": 1068473961}, "geometry": {"type": "LineString", "coordinates": [[77.503332, 28.753152], [77.503546, 28.75299], [77.503587, 28.752963], [77.503626, 28.752948], [77.503643, 28.752946], [77.503671, 28.752949], [77.503725, 28.752964], [77.503746, 28.752965], [77.503774, 28.752959], [77.503797, 28.752944], [77.504039, 28.752769]]}}, {"type": "Feature", "properties": {"name": "", "highway": "residential", "service": "", "access": "", "tunnel": "", "ref": "", "osm_id": 1068473962}, "geometry": {"type": "LineString", "coordinates": [[77.504137, 28.75396], [77.504381, 28.753636], [77.504391, 28.753614], [77.504388, 28.753591], [77.504367, 28.753562], [77.504236, 28.753432], [77.504153, 28.75335]]}}, {"type": "Feature", "properties": {"name": "", "highway": "residential", "service": "", "access": "", "tunnel": "", "ref": "", "osm_id": 1068473963}, "geometry": {"type": "LineString", "coordinates": [[77.504236, 28.753432], [77.504118, 28.753571], [77.503993, 28.753718]]}}, {"type": "Feature", "properties": {"name": "", "highway": "residential", "service": "", "access": "", "tunnel": "", "ref": "", "osm_id": 1068473964}, "geometry": {"type": "LineString", "coordinates": [[77.504745, 28.754735], [77.50458, 28.754746], [77.504498, 28.754749], [77.504455, 28.754749], [77.504408, 28.754747], [77.504334, 28.754738], [77.504251, 28.754718], [77.504184, 28.754698], [77.504079, 28.754661], [77.503935, 28.754615], [77.503858, 28.754594], [77.503734, 28.754565], [77.503661, 28.754554], [77.503627, 28.754553], [77.503618, 28.754559], [77.503613, 28.754567], [77.503615, 28.754578], [77.503631, 28.754597], [77.503937, 28.754938], [77.503958, 28.754952], [77.503984, 28.754961], [77.504006, 28.754961], [77.504024, 28.754951], [77.504054, 28.754919]]}}, {"type": "Feature", "properties": {"name": "", "highway": "residential", "service": "", "access": "", "tunnel": "", "ref": "", "osm_id": 1068473967}, "geometry": {"type": "LineString", "coordinates": [[77.504339, 28.754024], [77.504314, 28.754109], [77.504287, 28.754224], [77.504262, 28.754322], [77.504243, 28.7544], [77.504227, 28.75448], [77.504213, 28.754561], [77.504184, 28.754698]]}}, {"type": "Feature", "properties": {"name": "", "highway": "residential", "service": "", "access": "", "tunnel": "", "ref": "", "osm_id": 1068478775}, "geometry": {"type": "LineString", "coordinates": [[77.504738, 28.754651], [77.50514, 28.754518], [77.505364, 28.754444], [77.505401, 28.754436], [77.505429, 28.754437], [77.505464, 28.754449], [77.505563, 28.7545], [77.505642, 28.75454], [77.50572, 28.754578], [77.505802, 28.754618], [77.505863, 28.754655], [77.505904, 28.754677], [77.50594, 28.754697], [77.505996, 28.754738], [77.506023, 28.754761], [77.506059, 28.754795], [77.506223, 28.754967], [77.506349, 28.755115], [77.506482, 28.755265], [77.506534, 28.755326], [77.506564, 28.75536], [77.506584, 28.755384], [77.506602, 28.755401], [77.506621, 28.755411], [77.506643, 28.755412], [77.506664, 28.755408], [77.506756, 28.755368]]}}, {"type": "Feature", "properties": {"name": "", "highway": "residential", "service": "", "access": "", "tunnel": "", "ref": "", "osm_id": 1069461582}, "geometry": {"type": "LineString", "coordinates": [[77.50164, 28.753848], [77.50166, 28.753849], [77.501675, 28.753857], [77.501821, 28.754016], [77.502107, 28.754334], [77.502392, 28.754652], [77.502507, 28.754777], [77.502612, 28.754888], [77.502741, 28.755025], [77.502817, 28.755105], [77.502913, 28.755213], [77.503, 28.75532], [77.503127, 28.755475], [77.503146, 28.755486], [77.50317, 28.755494], [77.503201, 28.755488], [77.503328, 28.755426], [77.503352, 28.755421], [77.503372, 28.755426], [77.503387, 28.755436], [77.503459, 28.755515], [77.50363, 28.755691], [77.50385, 28.755916], [77.5039, 28.755965], [77.503968, 28.756025]]}}, {"type": "Feature", "properties": {"name": "", "highway": "residential", "service": "", "access": "", "tunnel": "", "ref": "", "osm_id": 1069461583}, "geometry": {"type": "LineString", "coordinates": [[77.501386, 28.754036], [77.501508, 28.754166], [77.501964, 28.754657], [77.502235, 28.75496], [77.50226, 28.754987], [77.502434, 28.755181], [77.502467, 28.755217], [77.502585, 28.755347], [77.502731, 28.755499]]}}, {"type": "Feature", "properties": {"name": "", "highway": "residential", "service": "", "access": "", "tunnel": "", "ref": "", "osm_id": 1069461584}, "geometry": {"type": "LineString", "coordinates": [[77.501452, 28.755537], [77.501661, 28.755383], [77.501712, 28.755346], [77.50187, 28.755229], [77.501971, 28.755154], [77.502235, 28.75496]]}}, {"type": "Feature", "properties": {"name": "", "highway": "residential", "service": "", "access": "", "tunnel": "", "ref": "", "osm_id": 1069461585}, "geometry": {"type": "LineString", "coordinates": [[77.501971, 28.755154], [77.502125, 28.75532], [77.502307, 28.755521], [77.502484, 28.755715]]}}, {"type": "Feature", "properties": {"name": "", "highway": "residential", "service": "", "access": "", "tunnel": "", "ref": "", "osm_id": 1069461586}, "geometry": {"type": "LineString", "coordinates": [[77.502467, 28.755217], [77.502741, 28.755025]]}}, {"type": "Feature", "properties": {"name": "", "highway": "residential", "service": "", "access": "", "tunnel": "", "ref": "", "osm_id": 1069461587}, "geometry": {"type": "LineString", "coordinates": [[77.501434, 28.755515], [77.501452, 28.755537], [77.501588, 28.7557], [77.501978, 28.75613], [77.502181, 28.756351], [77.502364, 28.756555]]}}, {"type": "Feature", "properties": {"name": "", "highway": "residential", "service": "", "access": "", "tunnel": "", "ref": "", "osm_id": 1069461588}, "geometry": {"type": "LineString", "coordinates": [[77.501712, 28.755346], [77.501874, 28.755528], [77.502037, 28.755703], [77.502195, 28.755866]]}}, {"type": "Feature", "properties": {"name": "", "highway": "residential", "service": "", "access": "", "tunnel": "", "ref": "", "osm_id": 1069462634}, "geometry": {"type": "LineString", "coordinates": [[77.502783, 28.753179], [77.502693, 28.753256], [77.502592, 28.753349]]}}, {"type": "Feature", "properties": {"name": "", "highway": "residential", "service": "", "access": "", "tunnel": "", "ref": "", "osm_id": 1069466766}, "geometry": {"type": "LineString", "coordinates": [[77.502848, 28.75818], [77.503072, 28.758028]]}}, {"type": "Feature", "properties": {"name": "", "highway": "residential", "service": "", "access": "", "tunnel": "", "ref": "", "osm_id": 1069496421}, "geometry": {"type": "LineString", "coordinates": [[77.502853, 28.758693], [77.502992, 28.758586], [77.503059, 28.758532], [77.503095, 28.758508], [77.503118, 28.758496], [77.503148, 28.758481], [77.50318, 28.758461], [77.503267, 28.758392], [77.503308, 28.75836], [77.503334, 28.75834], [77.503385, 28.758304], [77.50356, 28.758195], [77.503636, 28.758148], [77.503737, 28.758086], [77.503841, 28.758028], [77.503988, 28.757941], [77.504074, 28.757878], [77.504234, 28.757749], [77.504281, 28.757707], [77.504291, 28.757697], [77.504295, 28.757686], [77.50429, 28.757672], [77.504221, 28.757582], [77.504176, 28.757524], [77.504128, 28.757461], [77.504124, 28.757448], [77.504129, 28.757434], [77.504138, 28.757425], [77.504158, 28.75741], [77.504295, 28.757326], [77.504532, 28.757169], [77.50456, 28.757148], [77.50457, 28.757138], [77.504569, 28.757126], [77.504565, 28.757117], [77.504454, 28.756988]]}}, {"type": "Feature", "properties": {"name": "", "highway": "residential", "service": "", "access": "", "tunnel": "", "ref": "", "osm_id": 1069496422}, "geometry": {"type": "LineString", "coordinates": [[77.504222, 28.758195], [77.504471, 28.758004]]}}, {"type": "Feature", "properties": {"name": "", "highway": "residential", "service": "", "access": "", "tunnel": "", "ref": "", "osm_id": 1069842893}, "geometry": {"type": "LineString", "coordinates": [[77.503118, 28.758496], [77.503074, 28.758442], [77.503039, 28.758401], [77.503002, 28.758357], [77.502953, 28.758303], [77.502848, 28.75818], [77.502819, 28.758142], [77.502742, 28.758045]]}}, {"type": "Feature", "properties": {"name": "", "highway": "residential", "service": "", "access": "", "tunnel": "", "ref": "", "osm_id": 1069891795}, "geometry": {"type": "LineString", "coordinates": [[77.504816, 28.754132], [77.504588, 28.754086], [77.504449, 28.754054], [77.504339, 28.754024], [77.504311, 28.754017], [77.504275, 28.754006], [77.504137, 28.75396], [77.504032, 28.753927], [77.503958, 28.753909], [77.503921, 28.75391], [77.503879, 28.753925], [77.503845, 28.753951], [77.503817, 28.753982], [77.503764, 28.754061], [77.503739, 28.754095], [77.503711, 28.754129]]}}, {"type": "Feature", "properties": {"name": "", "highway": "residential", "service": "", "access": "", "tunnel": "", "ref": "", "osm_id": 1069918367}, "geometry": {"type": "LineString", "coordinates": [[77.504074, 28.757878], [77.503984, 28.757775], [77.503945, 28.75772], [77.503897, 28.757655], [77.50385, 28.75759], [77.503807, 28.757533], [77.503724, 28.757434], [77.503686, 28.757388], [77.503654, 28.757344]]}}, {"type": "Feature", "properties": {"name": "", "highway": "unclassified", "service": "", "access": "", "tunnel": "", "ref": "", "osm_id": 1071433135}, "geometry": {"type": "LineString", "coordinates": [[77.501888, 28.741029], [77.501869, 28.741032], [77.501851, 28.741041], [77.501815, 28.741068], [77.501593, 28.741222], [77.501463, 28.741309], [77.501096, 28.741556], [77.500738, 28.741811], [77.500358, 28.742075], [77.500338, 28.742094], [77.500335, 28.742115], [77.500359, 28.742162], [77.500608, 28.742504], [77.500633, 28.742556], [77.500621, 28.742605], [77.50056, 28.742653], [77.500325, 28.742796], [77.500279, 28.742823], [77.500049, 28.742957], [77.499967, 28.743004], [77.499881, 28.743058], [77.499688, 28.743235], [77.499479, 28.743464], [77.499452, 28.743502], [77.49942, 28.743546], [77.499411, 28.743609], [77.499415, 28.743656], [77.499777, 28.744401], [77.499849, 28.744507], [77.499986, 28.744613], [77.500233, 28.744848], [77.500292, 28.744911], [77.500541, 28.745175], [77.501072, 28.745775], [77.50137, 28.746113], [77.501411, 28.746184], [77.501593, 28.746506], [77.501696, 28.746702], [77.501799, 28.746927], [77.501882, 28.747109], [77.501909, 28.747181], [77.502166, 28.747756], [77.502256, 28.747957], [77.502403, 28.74827], [77.502533, 28.748507], [77.502615, 28.748655], [77.502803, 28.748976], [77.502929, 28.749175], [77.503171, 28.749554], [77.503269, 28.749707], [77.503346, 28.749822], [77.503599, 28.750197], [77.503644, 28.750265], [77.503869, 28.7506], [77.503913, 28.750666], [77.504454, 28.751429], [77.504548, 28.751545], [77.504651, 28.751674], [77.504816, 28.75186]]}}, {"type": "Feature", "properties": {"name": "", "highway": "residential", "service": "", "access": "", "tunnel": "", "ref": "", "osm_id": 1071481003}, "geometry": {"type": "LineString", "coordinates": [[77.491659, 28.749809], [77.492424, 28.749125], [77.492905, 28.748696], [77.493685, 28.747999], [77.494415, 28.747343]]}}, {"type": "Feature", "properties": {"name": "", "highway": "residential", "service": "", "access": "", "tunnel": "", "ref": "", "osm_id": 1071481004}, "geometry": {"type": "LineString", "coordinates": [[77.492445, 28.750528], [77.492688, 28.750346], [77.493075, 28.750022], [77.493369, 28.749763], [77.493683, 28.749504], [77.493807, 28.749394], [77.494564, 28.748722], [77.495059, 28.748291], [77.495281, 28.748086], [77.495525, 28.74787], [77.495764, 28.747658], [77.495904, 28.747533]]}}, {"type": "Feature", "properties": {"name": "", "highway": "residential", "service": "", "access": "", "tunnel": "", "ref": "", "osm_id": 1071481005}, "geometry": {"type": "LineString", "coordinates": [[77.491944, 28.750069], [77.492825, 28.749277], [77.493217, 28.748924], [77.493981, 28.748237], [77.494472, 28.747795], [77.494706, 28.747584], [77.494889, 28.74742], [77.494947, 28.747367], [77.495131, 28.747202], [77.495176, 28.747161], [77.495355, 28.747], [77.495413, 28.746948]]}}, {"type": "Feature", "properties": {"name": "", "highway": "residential", "service": "", "access": "", "tunnel": "", "ref": "", "osm_id": 1071485165}, "geometry": {"type": "LineString", "coordinates": [[77.492756, 28.751028], [77.49288, 28.750927], [77.493491, 28.750444], [77.493577, 28.75037], [77.493893, 28.750117]]}}, {"type": "Feature", "properties": {"name": "", "highway": "residential", "service": "", "access": "", "tunnel": "", "ref": "", "osm_id": 1071485167}, "geometry": {"type": "LineString", "coordinates": [[77.492825, 28.749277], [77.493369, 28.749763]]}}, {"type": "Feature", "properties": {"name": "", "highway": "residential", "service": "", "access": "", "tunnel": "", "ref": "", "osm_id": 1071485168}, "geometry": {"type": "LineString", "coordinates": [[77.493427, 28.751442], [77.493938, 28.751012], [77.494567, 28.750465], [77.494786, 28.750275], [77.495735, 28.74945]]}}, {"type": "Feature", "properties": {"name": "", "highway": "residential", "service": "", "access": "", "tunnel": "", "ref": "", "osm_id": 1071485169}, "geometry": {"type": "LineString", "coordinates": [[77.492905, 28.748696], [77.493217, 28.748924], [77.493807, 28.749394], [77.494701, 28.750214]]}}, {"type": "Feature", "properties": {"name": "", "highway": "residential", "service": "", "access": "", "tunnel": "", "ref": "", "osm_id": 1071485172}, "geometry": {"type": "LineString", "coordinates": [[77.494472, 28.747795], [77.495059, 28.748291], [77.49556, 28.748731]]}}, {"type": "Feature", "properties": {"name": "", "highway": "residential", "service": "", "access": "", "tunnel": "", "ref": "", "osm_id": 1071485173}, "geometry": {"type": "LineString", "coordinates": [[77.493415, 28.747741], [77.493685, 28.747999], [77.493981, 28.748237], [77.494564, 28.748722]]}}, {"type": "Feature", "properties": {"name": "", "highway": "residential", "service": "", "access": "", "tunnel": "", "ref": "", "osm_id": 1071485174}, "geometry": {"type": "LineString", "coordinates": [[77.495176, 28.747161], [77.495764, 28.747658], [77.496338, 28.748147], [77.496582, 28.748347], [77.496612, 28.748394], [77.49659, 28.748432], [77.496377, 28.748623], [77.49616, 28.748818], [77.49611, 28.748862], [77.495434, 28.749434], [77.494935, 28.749862]]}}, {"type": "Feature", "properties": {"name": "", "highway": "residential", "service": "", "access": "", "tunnel": "", "ref": "", "osm_id": 1071485175}, "geometry": {"type": "LineString", "coordinates": [[77.494947, 28.747367], [77.495525, 28.74787], [77.496325, 28.748571], [77.496377, 28.748623]]}}, {"type": "Feature", "properties": {"name": "", "highway": "residential", "service": "", "access": "", "tunnel": "", "ref": "", "osm_id": 1071485178}, "geometry": {"type": "LineString", "coordinates": [[77.494135, 28.7471], [77.494415, 28.747343], [77.494706, 28.747584], [77.495281, 28.748086], [77.496132, 28.748801], [77.49616, 28.748818]]}}, {"type": "Feature", "properties": {"name": "", "highway": "residential", "service": "", "access": "", "tunnel": "", "ref": "", "osm_id": 1071485179}, "geometry": {"type": "LineString", "coordinates": [[77.492424, 28.749125], [77.492213, 28.748909], [77.492197, 28.748853], [77.492229, 28.748803], [77.492323, 28.748723], [77.492996, 28.748114], [77.493415, 28.747741], [77.494135, 28.7471], [77.494335, 28.746923], [77.494571, 28.746713], [77.494745, 28.746558], [77.494791, 28.746534], [77.494836, 28.746536], [77.494887, 28.746565], [77.495107, 28.746762], [77.495355, 28.747]]}}, {"type": "Feature", "properties": {"name": "", "highway": "residential", "service": "", "access": "", "tunnel": "", "ref": "", "osm_id": 1071485194}, "geometry": {"type": "LineString", "coordinates": [[77.49122, 28.749432], [77.491666, 28.748788], [77.492005, 28.748335], [77.492308, 28.747929], [77.492637, 28.747512], [77.492755, 28.747382], [77.492869, 28.74729], [77.492909, 28.74726], [77.492975, 28.747211], [77.493582, 28.7468], [77.494202, 28.746352]]}}, {"type": "Feature", "properties": {"name": "", "highway": "service", "service": "", "access": "", "tunnel": "", "ref": "", "osm_id": 1071803536}, "geometry": {"type": "LineString", "coordinates": [[77.500463, 28.751145], [77.503171, 28.749554]]}}, {"type": "Feature", "properties": {"name": "", "highway": "residential", "service": "", "access": "", "tunnel": "", "ref": "", "osm_id": 1071803537}, "geometry": {"type": "LineString", "coordinates": [[77.501763, 28.748589], [77.501878, 28.748783], [77.501897, 28.748797], [77.501911, 28.748802], [77.501935, 28.748802], [77.50201, 28.748782], [77.502533, 28.748507]]}}, {"type": "Feature", "properties": {"name": "", "highway": "residential", "service": "", "access": "", "tunnel": "", "ref": "", "osm_id": 1071803538}, "geometry": {"type": "LineString", "coordinates": [[77.50135, 28.74816], [77.502166, 28.747756]]}}, {"type": "Feature", "properties": {"name": "", "highway": "residential", "service": "", "access": "", "tunnel": "", "ref": "", "osm_id": 1071803539}, "geometry": {"type": "LineString", "coordinates": [[77.501162, 28.747847], [77.50135, 28.74816], [77.501615, 28.748603], [77.501638, 28.748615], [77.501654, 28.748621], [77.501679, 28.748621], [77.501716, 28.748612], [77.501763, 28.748589], [77.502403, 28.74827]]}}, {"type": "Feature", "properties": {"name": "", "highway": "residential", "service": "", "access": "", "tunnel": "", "ref": "", "osm_id": 1072268057}, "geometry": {"type": "LineString", "coordinates": [[77.499801, 28.764354], [77.499742, 28.764296], [77.499312, 28.763854], [77.49922, 28.763757], [77.499043, 28.763544], [77.498857, 28.763313], [77.498681, 28.763108], [77.498659, 28.763082], [77.498412, 28.762797], [77.498395, 28.762777], [77.498203, 28.762558], [77.497957, 28.762279], [77.497785, 28.762083], [77.497514, 28.761811], [77.497139, 28.761435], [77.497082, 28.761378], [77.496509, 28.760838], [77.496403, 28.760737], [77.49639, 28.760713], [77.49639, 28.760692], [77.496404, 28.760669], [77.496828, 28.760277], [77.496839, 28.760262], [77.49684, 28.760249], [77.49683, 28.760237], [77.495872, 28.759419], [77.495186, 28.758842], [77.494891, 28.758599], [77.49463, 28.758371], [77.494291, 28.758093], [77.494141, 28.757969], [77.494012, 28.757859], [77.493431, 28.757359], [77.493411, 28.757342], [77.493234, 28.757188], [77.493183, 28.757148], [77.493007, 28.756998], [77.492875, 28.756891], [77.492858, 28.756876], [77.492177, 28.756287], [77.492089, 28.756204], [77.491399, 28.755629], [77.491144, 28.755412], [77.490444, 28.754843]]}}, {"type": "Feature", "properties": {"name": "", "highway": "residential", "service": "", "access": "", "tunnel": "", "ref": "", "osm_id": 1072268058}, "geometry": {"type": "LineString", "coordinates": [[77.491833, 28.75977], [77.491895, 28.759721], [77.491995, 28.759674], [77.492092, 28.759612], [77.492302, 28.759459], [77.492576, 28.759258], [77.492604, 28.759237], [77.492811, 28.759055], [77.492838, 28.759031], [77.492943, 28.758923], [77.493035, 28.75883], [77.493227, 28.758635], [77.493419, 28.75844], [77.493605, 28.758252], [77.493617, 28.75824], [77.494012, 28.757859]]}}, {"type": "Feature", "properties": {"name": "", "highway": "residential", "service": "", "access": "", "tunnel": "", "ref": "", "osm_id": 1072268059}, "geometry": {"type": "LineString", "coordinates": [[77.492811, 28.759055], [77.492587, 28.758851], [77.492525, 28.758795], [77.492434, 28.758726], [77.492188, 28.758564], [77.491988, 28.758432], [77.491978, 28.758415], [77.491977, 28.758393], [77.491988, 28.758371], [77.492572, 28.757761], [77.492648, 28.757684], [77.493183, 28.757148]]}}, {"type": "Feature", "properties": {"name": "", "highway": "residential", "service": "", "access": "", "tunnel": "", "ref": "", "osm_id": 1072268060}, "geometry": {"type": "LineString", "coordinates": [[77.492137, 28.756886], [77.492473, 28.757167], [77.492495, 28.757181], [77.492512, 28.757183], [77.49253, 28.757178], [77.492858, 28.756876]]}}, {"type": "Feature", "properties": {"name": "", "highway": "residential", "service": "", "access": "", "tunnel": "", "ref": "", "osm_id": 1072268061}, "geometry": {"type": "LineString", "coordinates": [[77.490753, 28.757573], [77.491016, 28.757371], [77.49109, 28.757306], [77.491193, 28.757209], [77.491407, 28.757006], [77.491686, 28.756743], [77.491952, 28.756491], [77.492104, 28.756347], [77.492177, 28.756287]]}}, {"type": "Feature", "properties": {"name": "", "highway": "residential", "service": "", "access": "", "tunnel": "", "ref": "", "osm_id": 1072268062}, "geometry": {"type": "LineString", "coordinates": [[77.492048, 28.75799], [77.491663, 28.757648], [77.491458, 28.757476], [77.4914, 28.757426], [77.491193, 28.757209]]}}, {"type": "Feature", "properties": {"name": "", "highway": "residential", "service": "", "access": "", "tunnel": "", "ref": "", "osm_id": 1072270094}, "geometry": {"type": "LineString", "coordinates": [[77.492831, 28.75794], [77.493419, 28.75844]]}}, {"type": "Feature", "properties": {"name": "", "highway": "residential", "service": "", "access": "", "tunnel": "", "ref": "", "osm_id": 1072272691}, "geometry": {"type": "LineString", "coordinates": [[77.492417, 28.758338], [77.493035, 28.75883]]}}, {"type": "Feature", "properties": {"name": "", "highway": "residential", "service": "", "access": "", "tunnel": "", "ref": "", "osm_id": 1072272692}, "geometry": {"type": "LineString", "coordinates": [[77.492766, 28.758233], [77.493227, 28.758635]]}}, {"type": "Feature", "properties": {"name": "", "highway": "residential", "service": "", "access": "", "tunnel": "", "ref": "", "osm_id": 1072272693}, "geometry": {"type": "LineString", "coordinates": [[77.492188, 28.758564], [77.49237, 28.758392], [77.492401, 28.758358], [77.492417, 28.758338], [77.492571, 28.758152], [77.492586, 28.758142], [77.492651, 28.758115], [77.492666, 28.758104], [77.492831, 28.75794], [77.49288, 28.757882], [77.492936, 28.757815], [77.492952, 28.757796], [77.49305, 28.757665], [77.493071, 28.757645], [77.493146, 28.757576], [77.493234, 28.757506], [77.493431, 28.757359], [77.493628, 28.757213], [77.493666, 28.757183], [77.493978, 28.756881]]}}, {"type": "Feature", "properties": {"name": "", "highway": "residential", "service": "", "access": "", "tunnel": "", "ref": "", "osm_id": 1072289313}, "geometry": {"type": "LineString", "coordinates": [[77.501452, 28.755537], [77.50142, 28.755558], [77.501173, 28.755717], [77.500893, 28.755892], [77.500861, 28.75591]]}}, {"type": "Feature", "properties": {"name": "", "highway": "residential", "service": "", "access": "", "tunnel": "", "ref": "", "osm_id": 1072289314}, "geometry": {"type": "LineString", "coordinates": [[77.500583, 28.754592], [77.500823, 28.754849], [77.501236, 28.755308], [77.501434, 28.755515]]}}, {"type": "Feature", "properties": {"name": "", "highway": "residential", "service": "", "access": "", "tunnel": "", "ref": "", "osm_id": 1072484042}, "geometry": {"type": "LineString", "coordinates": [[77.500846, 28.754411], [77.501075, 28.754655], [77.501712, 28.755346]]}}, {"type": "Feature", "properties": {"name": "", "highway": "residential", "service": "", "access": "", "tunnel": "", "ref": "", "osm_id": 1072484043}, "geometry": {"type": "LineString", "coordinates": [[77.501971, 28.755154], [77.501925, 28.755099], [77.501723, 28.754874], [77.501347, 28.754476], [77.501113, 28.754237]]}}, {"type": "Feature", "properties": {"name": "", "highway": "residential", "service": "", "access": "", "tunnel": "", "ref": "", "osm_id": 1072484044}, "geometry": {"type": "LineString", "coordinates": [[77.498932, 28.756747], [77.498704, 28.756503], [77.49864, 28.756435], [77.49835, 28.756118]]}}, {"type": "Feature", "properties": {"name": "", "highway": "residential", "service": "", "access": "", "tunnel": "", "ref": "", "osm_id": 1072484045}, "geometry": {"type": "LineString", "coordinates": [[77.501452, 28.757359], [77.501293, 28.757182], [77.501259, 28.757149], [77.501096, 28.756995], [77.501037, 28.756933], [77.500638, 28.756498], [77.500417, 28.756255], [77.500383, 28.75622], [77.500369, 28.756205], [77.500288, 28.756111], [77.500187, 28.756011], [77.500112, 28.755947], [77.499919, 28.755786], [77.49987, 28.755736], [77.499832, 28.755697], [77.499801, 28.755666], [77.499501, 28.755333]]}}, {"type": "Feature", "properties": {"name": "", "highway": "residential", "service": "", "access": "", "tunnel": "", "ref": "", "osm_id": 1072484046}, "geometry": {"type": "LineString", "coordinates": [[77.500861, 28.75591], [77.500614, 28.75607], [77.500383, 28.75622]]}}, {"type": "Feature", "properties": {"name": "", "highway": "residential", "service": "", "access": "", "tunnel": "", "ref": "", "osm_id": 1072485084}, "geometry": {"type": "LineString", "coordinates": [[77.50076, 28.753838], [77.501113, 28.754237]]}}, {"type": "Feature", "properties": {"name": "", "highway": "residential", "service": "", "access": "", "tunnel": "", "ref": "", "osm_id": 1072485085}, "geometry": {"type": "LineString", "coordinates": [[77.501173, 28.755717], [77.500697, 28.755206], [77.500298, 28.754776]]}}, {"type": "Feature", "properties": {"name": "", "highway": "residential", "service": "", "access": "", "tunnel": "", "ref": "", "osm_id": 1072485086}, "geometry": {"type": "LineString", "coordinates": [[77.500893, 28.755892], [77.500514, 28.755487], [77.500025, 28.754961]]}}, {"type": "Feature", "properties": {"name": "", "highway": "residential", "service": "", "access": "", "tunnel": "", "ref": "", "osm_id": 1072485087}, "geometry": {"type": "LineString", "coordinates": [[77.501604, 28.756765], [77.501388, 28.756885], [77.501373, 28.756887], [77.501361, 28.756881], [77.501039, 28.756535], [77.500614, 28.75607], [77.500234, 28.755667], [77.500088, 28.755506], [77.499765, 28.755146]]}}, {"type": "Feature", "properties": {"name": "", "highway": "residential", "service": "", "access": "", "tunnel": "", "ref": "", "osm_id": 1072485088}, "geometry": {"type": "LineString", "coordinates": [[77.501173, 28.755717], [77.501279, 28.755829], [77.501303, 28.755856], [77.50158, 28.75617], [77.501909, 28.756532], [77.502033, 28.756669]]}}, {"type": "Feature", "properties": {"name": "", "highway": "residential", "service": "", "access": "", "tunnel": "", "ref": "", "osm_id": 1072485836}, "geometry": {"type": "LineString", "coordinates": [[77.498143, 28.754854], [77.49835, 28.755079], [77.498684, 28.755414], [77.498731, 28.755463], [77.498952, 28.755709]]}}, {"type": "Feature", "properties": {"name": "", "highway": "residential", "service": "", "access": "", "tunnel": "", "ref": "", "osm_id": 1072485837}, "geometry": {"type": "LineString", "coordinates": [[77.498532, 28.75492], [77.498381, 28.755056], [77.49835, 28.755079], [77.498318, 28.755102], [77.498056, 28.755287], [77.497875, 28.755409], [77.497449, 28.755696]]}}, {"type": "Feature", "properties": {"name": "", "highway": "residential", "service": "", "access": "", "tunnel": "", "ref": "", "osm_id": 1072485838}, "geometry": {"type": "LineString", "coordinates": [[77.498279, 28.755842], [77.497875, 28.755409]]}}, {"type": "Feature", "properties": {"name": "", "highway": "residential", "service": "", "access": "", "tunnel": "", "ref": "", "osm_id": 1072485839}, "geometry": {"type": "LineString", "coordinates": [[77.498353, 28.754709], [77.498143, 28.754854], [77.49787, 28.755042], [77.497863, 28.755053], [77.49786, 28.755066], [77.497865, 28.755082], [77.498056, 28.755287], [77.498064, 28.755295], [77.498648, 28.755913]]}}, {"type": "Feature", "properties": {"name": "", "highway": "residential", "service": "", "access": "", "tunnel": "", "ref": "", "osm_id": 1072485840}, "geometry": {"type": "LineString", "coordinates": [[77.499194, 28.7565], [77.499009, 28.756302], [77.498648, 28.755913]]}}, {"type": "Feature", "properties": {"name": "", "highway": "residential", "service": "", "access": "", "tunnel": "", "ref": "", "osm_id": 1072485841}, "geometry": {"type": "LineString", "coordinates": [[77.499984, 28.755593], [77.499832, 28.755697], [77.499562, 28.755897], [77.499351, 28.756054], [77.499295, 28.756098], [77.499192, 28.756178], [77.499129, 28.756224], [77.499009, 28.756302], [77.498704, 28.756503]]}}, {"type": "Feature", "properties": {"name": "", "highway": "residential", "service": "", "access": "", "tunnel": "", "ref": "", "osm_id": 1072485842}, "geometry": {"type": "LineString", "coordinates": [[77.499295, 28.756098], [77.498952, 28.755709]]}}, {"type": "Feature", "properties": {"name": "", "highway": "residential", "service": "", "access": "", "tunnel": "", "ref": "", "osm_id": 1072485843}, "geometry": {"type": "LineString", "coordinates": [[77.499562, 28.755897], [77.499225, 28.755521]]}}, {"type": "Feature", "properties": {"name": "", "highway": "residential", "service": "", "access": "", "tunnel": "", "ref": "", "osm_id": 1072514205}, "geometry": {"type": "LineString", "coordinates": [[77.501043, 28.753185], [77.50079, 28.753362], [77.500778, 28.753374], [77.500777, 28.753384], [77.500782, 28.753397], [77.501208, 28.753841], [77.501386, 28.754036]]}}, {"type": "Feature", "properties": {"name": "", "highway": "residential", "service": "", "access": "", "tunnel": "", "ref": "", "osm_id": 1072514206}, "geometry": {"type": "LineString", "coordinates": [[77.500977, 28.753113], [77.501043, 28.753185], [77.501353, 28.753526], [77.50166, 28.753849]]}}, {"type": "Feature", "properties": {"name": "", "highway": "residential", "service": "", "access": "", "tunnel": "", "ref": "", "osm_id": 1072514207}, "geometry": {"type": "LineString", "coordinates": [[77.496815, 28.755285], [77.496649, 28.755429], [77.496161, 28.755889], [77.495873, 28.756157], [77.495792, 28.756232], [77.495259, 28.756727], [77.495037, 28.756933], [77.494812, 28.757142], [77.494648, 28.757294], [77.494557, 28.757374], [77.494381, 28.757527], [77.494189, 28.757694], [77.494126, 28.757752], [77.494012, 28.757859]]}}, {"type": "Feature", "properties": {"name": "", "highway": "residential", "service": "", "access": "", "tunnel": "", "ref": "", "osm_id": 1072514208}, "geometry": {"type": "LineString", "coordinates": [[77.493247, 28.756298], [77.493498, 28.756498], [77.493729, 28.756685], [77.493959, 28.756865], [77.493978, 28.756881], [77.494557, 28.757374]]}}, {"type": "Feature", "properties": {"name": "", "highway": "residential", "service": "", "access": "", "tunnel": "", "ref": "", "osm_id": 1072514209}, "geometry": {"type": "LineString", "coordinates": [[77.493027, 28.756562], [77.493229, 28.756778], [77.493427, 28.756993], [77.493628, 28.757213], [77.493694, 28.757278], [77.494126, 28.757752]]}}, {"type": "Feature", "properties": {"name": "", "highway": "residential", "service": "", "access": "", "tunnel": "", "ref": "", "osm_id": 1072514210}, "geometry": {"type": "LineString", "coordinates": [[77.497408, 28.755916], [77.496941, 28.756293], [77.496866, 28.756355], [77.496453, 28.756659], [77.496186, 28.756855], [77.496088, 28.756919], [77.496076, 28.756932], [77.496071, 28.75695], [77.496064, 28.757128], [77.496059, 28.757151], [77.496047, 28.75717], [77.495288, 28.757787], [77.495241, 28.757826], [77.49504, 28.757998], [77.495013, 28.758023], [77.494954, 28.75807], [77.494931, 28.758097], [77.494779, 28.758234], [77.49463, 28.758371]]}}, {"type": "Feature", "properties": {"name": "", "highway": "residential", "service": "", "access": "", "tunnel": "", "ref": "", "osm_id": 1072523724}, "geometry": {"type": "LineString", "coordinates": [[77.498237, 28.756818], [77.497773, 28.757195], [77.497593, 28.757354], [77.497426, 28.757491], [77.497178, 28.757702], [77.496926, 28.757903], [77.496643, 28.758114], [77.496482, 28.758243], [77.496394, 28.758324], [77.496177, 28.758524], [77.496152, 28.758547], [77.49605, 28.758636]]}}, {"type": "Feature", "properties": {"name": "", "highway": "residential", "service": "", "access": "", "tunnel": "", "ref": "", "osm_id": 1072523725}, "geometry": {"type": "LineString", "coordinates": [[77.498051, 28.759051], [77.497601, 28.758598], [77.497411, 28.758402], [77.496926, 28.757903], [77.49652, 28.75752], [77.496291, 28.757308], [77.4962, 28.757229], [77.496178, 28.757213], [77.496064, 28.757128]]}}, {"type": "Feature", "properties": {"name": "", "highway": "residential", "service": "", "access": "", "tunnel": "", "ref": "", "osm_id": 1072523726}, "geometry": {"type": "LineString", "coordinates": [[77.496594, 28.755973], [77.496141, 28.75638], [77.496127, 28.756393], [77.495778, 28.756708], [77.495281, 28.757197], [77.49463, 28.757796], [77.494451, 28.757961], [77.494291, 28.758093]]}}, {"type": "Feature", "properties": {"name": "", "highway": "residential", "service": "", "access": "", "tunnel": "", "ref": "", "osm_id": 1072524032}, "geometry": {"type": "LineString", "coordinates": [[77.49439, 28.75676], [77.494812, 28.757142]]}}, {"type": "Feature", "properties": {"name": "", "highway": "residential", "service": "", "access": "", "tunnel": "", "ref": "", "osm_id": 1072524033}, "geometry": {"type": "LineString", "coordinates": [[77.494648, 28.756573], [77.495037, 28.756933]]}}, {"type": "Feature", "properties": {"name": "", "highway": "residential", "service": "", "access": "", "tunnel": "", "ref": "", "osm_id": 1072524034}, "geometry": {"type": "LineString", "coordinates": [[77.494852, 28.756343], [77.495259, 28.756727]]}}, {"type": "Feature", "properties": {"name": "", "highway": "residential", "service": "", "access": "", "tunnel": "", "ref": "", "osm_id": 1072524035}, "geometry": {"type": "LineString", "coordinates": [[77.49395, 28.757146], [77.494381, 28.757527]]}}, {"type": "Feature", "properties": {"name": "", "highway": "residential", "service": "", "access": "", "tunnel": "", "ref": "", "osm_id": 1072524037}, "geometry": {"type": "LineString", "coordinates": [[77.493177, 28.757862], [77.493617, 28.75824]]}}, {"type": "Feature", "properties": {"name": "", "highway": "residential", "service": "", "access": "", "tunnel": "", "ref": "", "osm_id": 1072553723}, "geometry": {"type": "LineString", "coordinates": [[77.492437, 28.754166], [77.492105, 28.753585]]}}, {"type": "Feature", "properties": {"name": "", "highway": "residential", "service": "", "access": "", "tunnel": "", "ref": "", "osm_id": 1072553724}, "geometry": {"type": "LineString", "coordinates": [[77.492541, 28.7532], [77.492692, 28.75309], [77.492949, 28.752893], [77.492965, 28.752888], [77.492981, 28.75289], [77.492995, 28.752898], [77.49317, 28.753163], [77.493274, 28.753331]]}}, {"type": "Feature", "properties": {"name": "", "highway": "residential", "service": "", "access": "", "tunnel": "", "ref": "", "osm_id": 1072555458}, "geometry": {"type": "LineString", "coordinates": [[77.493007, 28.756998], [77.493103, 28.756912], [77.493229, 28.756778], [77.493498, 28.756498]]}}, {"type": "Feature", "properties": {"name": "", "highway": "residential", "service": "", "access": "", "tunnel": "", "ref": "", "osm_id": 1072555459}, "geometry": {"type": "LineString", "coordinates": [[77.493234, 28.757188], [77.49332, 28.757105], [77.493369, 28.757055], [77.493427, 28.756993], [77.493729, 28.756685]]}}, {"type": "Feature", "properties": {"name": "", "highway": "residential", "service": "", "access": "", "tunnel": "", "ref": "", "osm_id": 1072555460}, "geometry": {"type": "LineString", "coordinates": [[77.49288, 28.757882], [77.492648, 28.757684]]}}, {"type": "Feature", "properties": {"name": "", "highway": "residential", "service": "", "access": "", "tunnel": "", "ref": "", "osm_id": 1072619342}, "geometry": {"type": "LineString", "coordinates": [[77.493832, 28.752124], [77.493347, 28.752441], [77.493329, 28.752451], [77.493307, 28.752451], [77.493287, 28.752439], [77.493214, 28.75237], [77.493192, 28.752362], [77.493168, 28.752364], [77.493089, 28.752397], [77.493056, 28.752417], [77.492999, 28.752467], [77.492969, 28.752497], [77.492824, 28.752611], [77.492784, 28.75264], [77.492569, 28.752793], [77.492397, 28.752916], [77.492378, 28.752927], [77.492356, 28.752934], [77.492334, 28.752927], [77.492123, 28.752747], [77.492109, 28.752741], [77.492089, 28.752742], [77.492067, 28.752755], [77.491693, 28.753104]]}}, {"type": "Feature", "properties": {"name": "", "highway": "residential", "service": "", "access": "", "tunnel": "", "ref": "", "osm_id": 1072619343}, "geometry": {"type": "LineString", "coordinates": [[77.492307, 28.752495], [77.492569, 28.752793]]}}, {"type": "Feature", "properties": {"name": "", "highway": "residential", "service": "", "access": "", "tunnel": "", "ref": "", "osm_id": 1072619344}, "geometry": {"type": "LineString", "coordinates": [[77.492504, 28.75232], [77.492784, 28.75264]]}}, {"type": "Feature", "properties": {"name": "", "highway": "residential", "service": "", "access": "", "tunnel": "", "ref": "", "osm_id": 1072619346}, "geometry": {"type": "LineString", "coordinates": [[77.493766, 28.75352], [77.494153, 28.753278]]}}, {"type": "Feature", "properties": {"name": "", "highway": "residential", "service": "", "access": "", "tunnel": "", "ref": "", "osm_id": 1072619955}, "geometry": {"type": "LineString", "coordinates": [[77.493421, 28.751692], [77.493115, 28.751913], [77.49296, 28.752023]]}}, {"type": "Feature", "properties": {"name": "", "highway": "residential", "service": "", "access": "", "tunnel": "", "ref": "", "osm_id": 1072619956}, "geometry": {"type": "LineString", "coordinates": [[77.494602, 28.755452], [77.494497, 28.755546], [77.494385, 28.755646], [77.494249, 28.755788], [77.494214, 28.75584], [77.494157, 28.755932]]}}, {"type": "Feature", "properties": {"name": "", "highway": "service", "service": "", "access": "", "tunnel": "", "ref": "", "osm_id": 1072619957}, "geometry": {"type": "LineString", "coordinates": [[77.493643, 28.755103], [77.493774, 28.755114], [77.493821, 28.755124], [77.493872, 28.755146], [77.494497, 28.755546]]}}, {"type": "Feature", "properties": {"name": "", "highway": "residential", "service": "", "access": "", "tunnel": "", "ref": "", "osm_id": 1072619958}, "geometry": {"type": "LineString", "coordinates": [[77.493793, 28.753705], [77.494107, 28.753912]]}}, {"type": "Feature", "properties": {"name": "", "highway": "service", "service": "", "access": "", "tunnel": "", "ref": "", "osm_id": 1072621523}, "geometry": {"type": "LineString", "coordinates": [[77.499689, 28.756851], [77.499036, 28.757465]]}}, {"type": "Feature", "properties": {"name": "", "highway": "residential", "service": "", "access": "", "tunnel": "", "ref": "", "osm_id": 1072621524}, "geometry": {"type": "LineString", "coordinates": [[77.502181, 28.756351], [77.501909, 28.756532], [77.501626, 28.756726]]}}, {"type": "Feature", "properties": {"name": "", "highway": "service", "service": "", "access": "", "tunnel": "", "ref": "", "osm_id": 1072621525}, "geometry": {"type": "LineString", "coordinates": [[77.499079, 28.753718], [77.498624, 28.754063], [77.49769, 28.754762], [77.497029, 28.755254]]}}, {"type": "Feature", "properties": {"name": "", "highway": "residential", "service": "", "access": "", "tunnel": "", "ref": "", "osm_id": 1072621526}, "geometry": {"type": "LineString", "coordinates": [[77.500501, 28.7582], [77.500155, 28.757869]]}}, {"type": "Feature", "properties": {"name": "", "highway": "service", "service": "", "access": "", "tunnel": "", "ref": "", "osm_id": 1072622795}, "geometry": {"type": "LineString", "coordinates": [[77.495889, 28.751823], [77.494893, 28.750789], [77.494567, 28.750465]]}}, {"type": "Feature", "properties": {"name": "", "highway": "service", "service": "", "access": "", "tunnel": "", "ref": "", "osm_id": 1072622796}, "geometry": {"type": "LineString", "coordinates": [[77.498671, 28.750572], [77.497652, 28.751458], [77.497377, 28.751684], [77.49728, 28.751779], [77.497126, 28.751936], [77.496926, 28.752091], [77.496673, 28.752247], [77.496536, 28.752333], [77.495937, 28.752689], [77.495071, 28.753188]]}}, {"type": "Feature", "properties": {"name": "", "highway": "service", "service": "", "access": "", "tunnel": "", "ref": "", "osm_id": 1072622797}, "geometry": {"type": "LineString", "coordinates": [[77.496201, 28.753007], [77.495907, 28.753255], [77.495496, 28.75364]]}}, {"type": "Feature", "properties": {"name": "", "highway": "service", "service": "", "access": "", "tunnel": "", "ref": "", "osm_id": 1072622798}, "geometry": {"type": "LineString", "coordinates": [[77.496416, 28.75322], [77.496175, 28.753442], [77.495879, 28.753706], [77.495704, 28.75386]]}}, {"type": "Feature", "properties": {"name": "", "highway": "service", "service": "", "access": "", "tunnel": "", "ref": "", "osm_id": 1072629373}, "geometry": {"type": "LineString", "coordinates": [[77.497631, 28.753833], [77.497276, 28.754099], [77.497266, 28.754118], [77.497273, 28.754141], [77.497439, 28.754386], [77.497441, 28.754408], [77.497429, 28.754431], [77.496714, 28.754922]]}}, {"type": "Feature", "properties": {"name": "", "highway": "residential", "service": "", "access": "", "tunnel": "", "ref": "", "osm_id": 1072674980}, "geometry": {"type": "LineString", "coordinates": [[77.495632, 28.75804], [77.496152, 28.758547]]}}, {"type": "Feature", "properties": {"name": "", "highway": "residential", "service": "", "access": "", "tunnel": "", "ref": "", "osm_id": 1072674981}, "geometry": {"type": "LineString", "coordinates": [[77.495865, 28.757816], [77.496394, 28.758324]]}}, {"type": "Feature", "properties": {"name": "", "highway": "residential", "service": "", "access": "", "tunnel": "", "ref": "", "osm_id": 1072674982}, "geometry": {"type": "LineString", "coordinates": [[77.496173, 28.757656], [77.496643, 28.758114]]}}, {"type": "Feature", "properties": {"name": "", "highway": "residential", "service": "", "access": "", "tunnel": "", "ref": "", "osm_id": 1072674983}, "geometry": {"type": "LineString", "coordinates": [[77.494891, 28.758599], [77.495031, 28.758489], [77.495039, 28.758472], [77.495037, 28.758456], [77.49503, 28.758438], [77.494779, 28.758234]]}}, {"type": "Feature", "properties": {"name": "", "highway": "residential", "service": "", "access": "", "tunnel": "", "ref": "", "osm_id": 1072674984}, "geometry": {"type": "LineString", "coordinates": [[77.495316, 28.75825], [77.49504, 28.757998]]}}, {"type": "Feature", "properties": {"name": "", "highway": "residential", "service": "", "access": "", "tunnel": "", "ref": "", "osm_id": 1072674985}, "geometry": {"type": "LineString", "coordinates": [[77.495527, 28.758013], [77.495288, 28.757787]]}}, {"type": "Feature", "properties": {"name": "", "highway": "residential", "service": "", "access": "", "tunnel": "", "ref": "", "osm_id": 1072674986}, "geometry": {"type": "LineString", "coordinates": [[77.494954, 28.75807], [77.49463, 28.757796]]}}, {"type": "Feature", "properties": {"name": "", "highway": "residential", "service": "", "access": "", "tunnel": "", "ref": "", "osm_id": 1072676412}, "geometry": {"type": "LineString", "coordinates": [[77.496876, 28.756685], [77.497319, 28.757106], [77.497593, 28.757354]]}}, {"type": "Feature", "properties": {"name": "", "highway": "residential", "service": "", "access": "", "tunnel": "", "ref": "", "osm_id": 1072676413}, "geometry": {"type": "LineString", "coordinates": [[77.497365, 28.756343], [77.496899, 28.756669], [77.496876, 28.756685], [77.496533, 28.756929], [77.496395, 28.757032], [77.496178, 28.757213]]}}, {"type": "Feature", "properties": {"name": "", "highway": "residential", "service": "", "access": "", "tunnel": "", "ref": "", "osm_id": 1072676414}, "geometry": {"type": "LineString", "coordinates": [[77.496532, 28.757088], [77.496881, 28.75742], [77.497178, 28.757702], [77.497896, 28.758418]]}}, {"type": "Feature", "properties": {"name": "", "highway": "residential", "service": "", "access": "", "tunnel": "", "ref": "", "osm_id": 1072676415}, "geometry": {"type": "LineString", "coordinates": [[77.496821, 28.75693], [77.497242, 28.757322], [77.497426, 28.757491], [77.497942, 28.757999], [77.498155, 28.758213]]}}, {"type": "Feature", "properties": {"name": "", "highway": "residential", "service": "", "access": "", "tunnel": "", "ref": "", "osm_id": 1072677840}, "geometry": {"type": "LineString", "coordinates": [[77.498607, 28.757797], [77.498981, 28.758272], [77.499134, 28.758459], [77.499508, 28.758847]]}}, {"type": "Feature", "properties": {"name": "", "highway": "residential", "service": "", "access": "", "tunnel": "", "ref": "", "osm_id": 1072677842}, "geometry": {"type": "LineString", "coordinates": [[77.498347, 28.758173], [77.498744, 28.758649]]}}, {"type": "Feature", "properties": {"name": "", "highway": "residential", "service": "", "access": "", "tunnel": "", "ref": "", "osm_id": 1072677843}, "geometry": {"type": "LineString", "coordinates": [[77.498288, 28.758498], [77.498545, 28.758781], [77.498772, 28.759031], [77.498976, 28.759233]]}}, {"type": "Feature", "properties": {"name": "", "highway": "residential", "service": "", "access": "", "tunnel": "", "ref": "", "osm_id": 1072681679}, "geometry": {"type": "LineString", "coordinates": [[77.497174, 28.758587], [77.497411, 28.758402]]}}, {"type": "Feature", "properties": {"name": "", "highway": "residential", "service": "", "access": "", "tunnel": "", "ref": "", "osm_id": 1072681680}, "geometry": {"type": "LineString", "coordinates": [[77.496968, 28.758377], [77.497174, 28.758587], [77.497333, 28.758749], [77.497818, 28.759203]]}}, {"type": "Feature", "properties": {"name": "", "highway": "residential", "service": "", "access": "", "tunnel": "", "ref": "", "osm_id": 1072682595}, "geometry": {"type": "LineString", "coordinates": [[77.495457, 28.755933], [77.495792, 28.756232]]}}, {"type": "Feature", "properties": {"name": "", "highway": "residential", "service": "", "access": "", "tunnel": "", "ref": "", "osm_id": 1072682596}, "geometry": {"type": "LineString", "coordinates": [[77.496453, 28.756659], [77.496141, 28.75638], [77.495873, 28.756157]]}}, {"type": "Feature", "properties": {"name": "", "highway": "residential", "service": "", "access": "", "tunnel": "", "ref": "", "osm_id": 1072688787}, "geometry": {"type": "LineString", "coordinates": [[77.501973, 28.758715], [77.502123, 28.758571], [77.502152, 28.758555], [77.502222, 28.758524], [77.502254, 28.758505], [77.50255, 28.758343]]}}, {"type": "Feature", "properties": {"name": "", "highway": "residential", "service": "", "access": "", "tunnel": "", "ref": "", "osm_id": 1072690880}, "geometry": {"type": "LineString", "coordinates": [[77.501161, 28.757547], [77.501142, 28.75759], [77.50113, 28.757605], [77.500911, 28.757768], [77.500641, 28.757969]]}}, {"type": "Feature", "properties": {"name": "", "highway": "residential", "service": "", "access": "", "tunnel": "", "ref": "", "osm_id": 1072690881}, "geometry": {"type": "LineString", "coordinates": [[77.500911, 28.757768], [77.500614, 28.757468]]}}, {"type": "Feature", "properties": {"name": "", "highway": "tertiary", "service": "", "access": "", "tunnel": "", "ref": "", "osm_id": 1271908498}, "geometry": {"type": "LineString", "coordinates": [[77.501034, 28.758377], [77.50085, 28.758526], [77.500435, 28.758848]]}}, {"type": "Feature", "properties": {"name": "", "highway": "residential", "service": "", "access": "", "tunnel": "", "ref": "", "osm_id": 1306297797}, "geometry": {"type": "LineString", "coordinates": [[77.491724, 28.756292], [77.491952, 28.756491], [77.492188, 28.756714]]}}, {"type": "Feature", "properties": {"name": "", "highway": "service", "service": "", "access": "", "tunnel": "", "ref": "", "osm_id": 1444431650}, "geometry": {"type": "LineString", "coordinates": [[77.49234, 28.750432], [77.492923, 28.749894], [77.492919, 28.749864], [77.492831, 28.749778], [77.492795, 28.749777], [77.492169, 28.750276]]}}, {"type": "Feature", "properties": {"name": "Meerut Road", "highway": "trunk", "service": "", "access": "", "tunnel": "", "ref": "NH34", "osm_id": 1464325106}, "geometry": {"type": "LineString", "coordinates": [[77.487841, 28.746939], [77.488656, 28.747587], [77.489705, 28.7484], [77.490168, 28.748762], [77.490336, 28.748891], [77.491005, 28.749444], [77.49111, 28.74953], [77.491434, 28.749798], [77.491839, 28.750165], [77.492341, 28.750621], [77.492756, 28.751028], [77.493237, 28.751498], [77.493421, 28.751692], [77.493832, 28.752124], [77.4944, 28.752721], [77.494743, 28.753083], [77.495959, 28.754374], [77.496815, 28.755285], [77.497408, 28.755916], [77.497913, 28.756453], [77.498237, 28.756818], [77.499839, 28.75862], [77.500197, 28.759023], [77.500238, 28.759074], [77.500259, 28.759101], [77.500307, 28.759161], [77.500333, 28.759189], [77.501021, 28.759977], [77.501693, 28.760691], [77.501877, 28.760887], [77.502047, 28.761069], [77.50229, 28.761327], [77.502631, 28.76169], [77.502833, 28.761895], [77.503176, 28.762245], [77.503818, 28.762945], [77.505385, 28.764657], [77.505446, 28.764723], [77.50616, 28.765503], [77.507013, 28.766434], [77.507425, 28.766879], [77.507792, 28.767276], [77.507803, 28.767287], [77.508092, 28.767599], [77.508285, 28.76781], [77.508333, 28.767864], [77.509053, 28.76866], [77.509736, 28.769418], [77.509884, 28.769583], [77.51028, 28.770022], [77.510638, 28.770417], [77.511096, 28.770921], [77.511622, 28.771501], [77.512135, 28.772016], [77.51233, 28.772211], [77.512677, 28.772558], [77.513478, 28.773361], [77.514422, 28.774307], [77.514535, 28.774424], [77.515256, 28.775167], [77.516465, 28.776455], [77.517211, 28.777312], [77.517663, 28.777876], [77.518025, 28.778459], [77.518159, 28.778631], [77.518209, 28.778696]]}}, {"type": "Feature", "properties": {"name": "", "highway": "service", "service": "", "access": "", "tunnel": "", "ref": "", "osm_id": 1554238072}, "geometry": {"type": "LineString", "coordinates": [[77.496673, 28.752247], [77.496819, 28.752427], [77.496993, 28.752642]]}}, {"type": "Feature", "properties": {"name": "", "highway": "service", "service": "", "access": "", "tunnel": "", "ref": "", "osm_id": 1554238073}, "geometry": {"type": "LineString", "coordinates": [[77.496993, 28.752642], [77.496856, 28.752734], [77.496836, 28.752734], [77.496822, 28.752727], [77.496685, 28.752552], [77.496678, 28.752532], [77.49669, 28.752513], [77.496819, 28.752427]]}}]}