{
  "type": "FeatureCollection",
  "name": "KIET campus screenshot reconstruction",
  "features": [
    {
      "type": "Feature",
      "properties": {
        "id": "marked-campus-boundary",
        "source": "user screenshot red outline",
        "confidence": "medium for pixel geometry; low for geographic transform"
      },
      "geometry": {
        "type": "Polygon",
        "coordinates": [
          [
            [
              77.4946146,
              28.7535683
            ],
            [
              77.494622,
              28.7535166
            ],
            [
              77.4948138,
              28.7534778
            ],
            [
              77.495013,
              28.7533549
            ],
            [
              77.4951827,
              28.7531932
            ],
            [
              77.4953228,
              28.7529991
            ],
            [
              77.4955884,
              28.7527857
            ],
            [
              77.4957286,
              28.7525787
            ],
            [
              77.4958688,
              28.7524558
            ],
            [
              77.496186,
              28.7519578
            ],
            [
              77.4963188,
              28.7517961
            ],
            [
              77.4964885,
              28.7516797
            ],
            [
              77.4969238,
              28.7512916
            ],
            [
              77.4975951,
              28.7508583
            ],
            [
              77.4977574,
              28.7507807
            ],
            [
              77.4978091,
              28.7507354
            ],
            [
              77.4978902,
              28.7505737
            ],
            [
              77.4980083,
              28.7505737
            ],
            [
              77.4979345,
              28.7506448
            ],
            [
              77.4978386,
              28.7508195
            ],
            [
              77.4969754,
              28.7513563
            ],
            [
              77.4963557,
              28.7518867
            ],
            [
              77.4959426,
              28.7525076
            ],
            [
              77.4958171,
              28.7526111
            ],
            [
              77.4956548,
              28.7528439
            ],
            [
              77.4953745,
              28.7530767
            ],
            [
              77.495131,
              28.7533743
            ],
            [
              77.4948433,
              28.753536
            ],
            [
              77.4948433,
              28.7537365
            ],
            [
              77.4951605,
              28.7539111
            ],
            [
              77.4954114,
              28.7539046
            ],
            [
              77.4955368,
              28.7537559
            ],
            [
              77.4956991,
              28.75362
            ],
            [
              77.4961122,
              28.7531026
            ],
            [
              77.4963114,
              28.7529668
            ],
            [
              77.4964073,
              28.7529733
            ],
            [
              77.4965254,
              28.7530444
            ],
            [
              77.4967098,
              28.7532514
            ],
            [
              77.496968,
              28.7532578
            ],
            [
              77.497123,
              28.7531673
            ],
            [
              77.4972336,
              28.7531802
            ],
            [
              77.4973517,
              28.7532902
            ],
            [
              77.4974033,
              28.7533937
            ],
            [
              77.4977205,
              28.75362
            ],
            [
              77.4978902,
              28.7538141
            ],
            [
              77.4981189,
              28.7538141
            ],
            [
              77.4983107,
              28.7536524
            ],
            [
              77.4988124,
              28.7533678
            ],
            [
              77.4990485,
              28.7530703
            ],
            [
              77.4990927,
              28.7530703
            ],
            [
              77.4991223,
              28.7531026
            ],
            [
              77.4991813,
              28.7534131
            ],
            [
              77.4993731,
              28.7534972
            ],
            [
              77.4996239,
              28.7534972
            ],
            [
              77.4999043,
              28.7532708
            ],
            [
              77.5001403,
              28.7531479
            ],
            [
              77.5012322,
              28.753135
            ],
            [
              77.501306,
              28.7531156
            ],
            [
              77.501424,
              28.753025
            ],
            [
              77.5015052,
              28.7528116
            ],
            [
              77.5015052,
              28.7526175
            ],
            [
              77.5013871,
              28.7525723
            ],
            [
              77.5013503,
              28.7524817
            ],
            [
              77.5015568,
              28.7523912
            ],
            [
              77.501579,
              28.7521712
            ],
            [
              77.5015863,
              28.7523394
            ],
            [
              77.5017929,
              28.7523588
            ],
            [
              77.5020437,
              28.752417
            ],
            [
              77.5022651,
              28.752417
            ],
            [
              77.5022724,
              28.7521066
            ],
            [
              77.5022208,
              28.752016
            ],
            [
              77.5020806,
              28.7518802
            ],
            [
              77.5019552,
              28.7516344
            ],
            [
              77.5018077,
              28.7514598
            ],
            [
              77.5015199,
              28.7512011
            ],
            [
              77.5014093,
              28.7511493
            ],
            [
              77.5012396,
              28.751007
            ],
            [
              77.5009666,
              28.7508647
            ],
            [
              77.5008928,
              28.750619
            ],
            [
              77.5008043,
              28.7505737
            ],
            [
              77.500915,
              28.7505737
            ],
            [
              77.500915,
              28.7505996
            ],
            [
              77.500974,
              28.7506254
            ],
            [
              77.5009814,
              28.7507419
            ],
            [
              77.5010552,
              28.7508453
            ],
            [
              77.5012543,
              28.7509294
            ],
            [
              77.5014462,
              28.7510782
            ],
            [
              77.5015863,
              28.7511493
            ],
            [
              77.5018593,
              28.7513951
            ],
            [
              77.5020216,
              28.7515762
            ],
            [
              77.5021544,
              28.7518285
            ],
            [
              77.5023167,
              28.7519966
            ],
            [
              77.5023757,
              28.7521195
            ],
            [
              77.5023757,
              28.7522359
            ],
            [
              77.5024643,
              28.7523329
            ],
            [
              77.5023905,
              28.7524752
            ],
            [
              77.5023093,
              28.7525334
            ],
            [
              77.5018593,
              28.7524688
            ],
            [
              77.5016306,
              28.7524688
            ],
            [
              77.5016232,
              28.7527534
            ],
            [
              77.5015568,
              28.7528956
            ],
            [
              77.5015347,
              28.7530509
            ],
            [
              77.501306,
              28.7532061
            ],
            [
              77.5005682,
              28.7532061
            ],
            [
              77.5001256,
              28.7532384
            ],
            [
              77.4997641,
              28.7534972
            ],
            [
              77.4997641,
              28.7535748
            ],
            [
              77.4997346,
              28.7536006
            ],
            [
              77.4996239,
              28.7536006
            ],
            [
              77.4991591,
              28.7535101
            ],
            [
              77.4991001,
              28.753426
            ],
            [
              77.4988714,
              28.753426
            ],
            [
              77.4983402,
              28.75373
            ],
            [
              77.4981337,
              28.753924
            ],
            [
              77.498023,
              28.7539628
            ],
            [
              77.4978533,
              28.7538982
            ],
            [
              77.4976172,
              28.7536524
            ],
            [
              77.4973812,
              28.7534972
            ],
            [
              77.4972557,
              28.7533161
            ],
            [
              77.4970344,
              28.7533161
            ],
            [
              77.496909,
              28.7533937
            ],
            [
              77.4968205,
              28.7534066
            ],
            [
              77.4966287,
              28.7533096
            ],
            [
              77.496459,
              28.7531026
            ],
            [
              77.4962377,
              28.7531026
            ],
            [
              77.4959647,
              28.7534001
            ],
            [
              77.495736,
              28.7537106
            ],
            [
              77.4956106,
              28.7537947
            ],
            [
              77.4954852,
              28.7539564
            ],
            [
              77.4953524,
              28.7540275
            ],
            [
              77.4951605,
              28.7540016
            ],
            [
              77.4948286,
              28.7538335
            ],
            [
              77.4946146,
              28.7535683
            ]
          ]
        ]
      }
    }
  ]
}